Facility_Name,Address,Suite_Number,Address_2,City,ZIP_Code,County,Phone_Number,Website,Clinic_ID,Longitude,Latitude,x,y
AHN-Allegheny General Hospital,320 East North Avenue,Pharmacy,,Pittsburgh,15212,Allegheny,1-412-624-2100,https://www.ahn.org/coronavirus.html,15274,-80.003274,40.456215,-8905923.723474743,4932461.369082788
AHN-Allegheny Valley Hospital,1301 Carlisle Street,,,Natrona Heights,15065,Allegheny,1-412-362-8677,https://www.ahn.org/coronavirus.html,17718,-79.737377,40.617348,-8876324.204831284,4956063.369446319
AHN-Saint Vincent Hospital,PHARMACY DEPARTMENT,,232 WEST 25TH STREET,Erie,16544,Erie,,https://www.ahn.org/coronavirus.html,11833,-80.080053,42.11074,-8914470.72265836,5177582.220270508
AHN-WEST PENN HOSPITAL,PHARMACY DEPARTMENT,,4800 FRIENDSHIP AVENUE,PITTSBURGH,15224,Allegheny,412-687-7348,https://www.ahn.org/coronavirus.html,15308,-79.946843,40.462383,-8899641.853289787,4933363.785026581
AHOLD USA-GIANT PHARMACY-6504,300 Lincoln Avenue,,,East Stroudsburg,18301,Monroe,1.844.915.1814,https://www.giantfoodstores.com/covid-19vaccine,19312,-75.183397,40.992085,-8369377.470148532,5011174.27324275
Adzema Pharmacy,8105 Perry Highway,,,Pittsburgh,15237,Allegheny,412-364-7000,https://www.adzemapharmacy.com/,1027,-80.039499,40.557458,-8909956.272028731,4947284.334789073
Alberts Pharmacy,201 S. Main Street,,,Pittston,18640,Luzerne,717-323-8230,,869,-75.793926,41.318492,-8437341.247543057,5059433.272281796
Allegheny County Health Dept-Immunization Cl,425 1st Avenue,4th Floor,,Pittsburgh,15219,Allegheny,412-578-8062,https://www.alleghenycounty.us/Health-Department/Health-Services/Infectious-Disease-Immunization-Program/Immunization-Clinic.aspx,69,-79.999576,40.436938,-8905512.063997788,4929641.560550293
Allentown Health Bureau,Alliance Hall,,245 North 6th Street,Allentown,18102,Lehigh,,https://allentownpaclinics.schedulemeappointments.com/,79,-75.471465,40.606562,-8401445.053222368,4954481.7123829825
Allied Services Rehab Hospital,475 Morgan Highway,,,Scranton,18508,Lackawanna,570-348-1411,https://www.allied-services.org/coronavirus-information/covid-19-vaccine/,41332,-75.674299,41.449354,-8424024.430817932,5078848.926370039
Armstrong County Memorial Hospital,One Nolte Dr,,,Kittanning,16201,Armstrong,724-525-9021,https://www.acmh.org/covid-19%20vaccine,13263,-79.479054,40.814808,-8847567.820011094,4985064.141806246
Armstrong Primary Care Center-Leechburg,116 Main Street,,,Leechburg,15656,Armstrong,724-845-1211,https://www.acmh.org/covid-19-vaccine,200,-79.606823,40.627875,-8861791.000030259,4957607.293049895
Armstrong Primary Care Center-S Bethlehem,102 South Street,,,New Bethlehem,16242,Clarion,814-275-2264,http://www.co.clarion.pa.us/government/departments/public_safety/covid-19/index.php,199,-79.341205,40.997683,-8832222.539524732,5011999.912883169
BTAMC Pediatric and Family Health Care Center,6678 Towne Center Blvd,6678,,Huntingdon,16652,Huntingdon,814-506-8490,,21935,-78.047176,40.493735,-8688171.890173001,4937952.055091373
Beaver Falls Health Mart Pharmacy,1314 7th Ave,,,Beaver Falls,15010,Beaver,724-384-0766,https://memawrx.com/beaver-falls,1399,-80.319385,40.754124,-8941113.039028896,4976142.376165675
Beaver Health Mart Pharmacy,533 Third St,,,Beaver,15009,Beaver,724-774-0919,https://www.beaverhealthmart.com,714,-80.303435,40.69575,-8939337.493150743,4967567.90787213
Bethlehem Health Bureau,10 East Church Street,,,Bethlehem,18018,Lehigh,610-865-7083,https://www.bethlehem-pa.gov/Health-Bureau/Communicable-Diseases/COVID-19,65,-75.378081,40.618623,-8391049.59389413,4956250.352088215
Black Creek Health Center,75 Pineapple Street,,,Nuremberg,18241,Schuylkill,570-704-4235,,21903,-76.1719502,40.9397102,-8479422.708994593,5003452.99513633
Blue Mountain Psychiatry,241 North 13th Street,,,Easton,18042,Northampton,610-253-2500,https://bluepsychiatry.org/,1224,-75.228352,40.692999,-8374381.837857143,4967164.00312072
Brundages Waymart Pharmacy,238 Belmont Street,,,Waymart,18472,Wayne,570-488-7979,https://www.brundagesrx.com/,41339,-75.408158,41.582512,-8394397.75021872,5098645.474101126
Butler Memorial Hospital,ONE HOSPITAL WAY,,,Butler,16001,Butler,1-877-998-2224,https://www.butlerhealthsystem.org,10944,-79.9085142,40.8668263,-8895375.11079107,4992718.373600413
CMMC-CPG Portage Rural Health Center,3670 Portage Street,Suite 105,,Portage,15946,Cambria,,https://www.conemaugh.org/,483,-78.670075,40.393747,-8757512.68966864,4923326.58400155
Central Outreach Wellness Center,127 Anderson St,Suite 101,,Pittsburgh,15212,Allegheny,412-322-4151,https://www.centraloutreach.com/location/pittsburgh-north-shore-location,919,-80.000705,40.448549,-8905637.743702894,4931339.902078411
Centre Volunteers in Medicine,2520 Green Tech Dr.,D,,State College,16803,Centre,814-231-4043,https://cvim.net/covid-vaccination/,42852,-77.918995,40.813387,-8673902.84652363,4984855.13303804
Centro De Salud Latino Americano,17th & Chew St,403,,Allentown,18104,Lehigh,610-969-3600,https://www.lvhn.org/treatments/covid-19-vaccines,14060,-75.5371705,40.6050762,-8408759.356024686,4954263.854948088
Clarion Osteopathic Hospital,1 Hospital Drive,,,Clarion,16214,Clarion,814-223-4157,https://www.butlerhealthsystem.org/CoronaVirus.aspx,11726,-79.396923,41.191878,-8838425.03891275,5040684.953990014
Clarion Pharmacy,30 Pinnacle Drive,,,Clarion,16214,Clarion,814-226-4015,https://walbergfamilypharmacies.com/clarionpharmacy,1404,-79.369825,41.199305,-8835408.503351236,5041783.701723672
Colonial Pharmacy,708 Ekastown Rd,,PO Box 123,Sarver,16055,Butler,724-353-1420,https://www.colonialpharmacy.net/,19046,-79.777838,40.712234,-8880828.30274827,4969988.455780275
Community Health Net,1202 State Street,,Administration,Erie,16501,Erie,814-454-4530,https://www.community-healthnet.com/resources/covid-19-vaccination/,218,-80.081329,42.123441,-8914612.76632861,5179488.279761919
Community Pharmacy,1256 Pennsylvania Ave,,,Tyrone,16686,Blair,814-684-0230,https://www.cptyrone.com/,1366,-78.236995,40.673364,-8709302.44459589,4964281.655637932
Conemaugh Miners Medical Center,290 Haida Ave,,,Hastings,16646,Cambria,814-247-3101,https://www.conemaugh.org/health-information/covid-19-information/covid-19-vaccine-information#,1092,-78.705748,40.658976,-8761483.78986371,4962170.087762021
Cornerstone Coordinated Health Care LLC,40 West Frack Street,,,Frackville,17931,Schuylkill,570-794-6123,https://cornerstonerhc.com/,21396,-76.231969,40.78475,-8486103.971248616,4980643.993768962
DeBalkos Standard Drug,322 S. Hancock Street,,,Mcadoo,18237,Schuylkill,570-929-1130,https://www.mygnp.com/,600,-75.995779,40.898656,-8459811.420718152,4997404.919496213
Delta Medix PC,300 Lackawanna Avenue,200,,Scranton,18503,Lackawanna,570-800-7517,https://www.deltamedix.com/,1521,-75.667653,41.40834,-8423284.60148212,5072759.580297058
Dingmans Medical,1592 Route 739,,,Dingmans Ferry,18328,Pike,570-828-8000,https://dingmansmedical.com/,651,-74.922682,41.274377,-8340354.809106362,5052896.834599425
EASTON HOSPITAL,PHARMACY DEPT,,250 SOUTH 21ST STREET,Easton,18042,Northampton,1-866-785-8537,https://www.slhn.org/covid-19/protect-yourself/covid-19-vaccine,14751,-75.242807,40.686516,-8375990.96109656,4966212.22810413
ELFHCC-East Liberty Family Health Care Center,6023 Harvard Street,,,Pittsburgh,15206,Allegheny,412-661-1444,https://www.ELFHCC.com,668,-79.923252,40.462871,-8897015.715182485,4933435.185934035
EMHS Physician Office,100 Hospital Drive,,,Montrose,18801,Susquehanna,570-278-3801,https://www.endlesscare.org,257,-75.837323,41.836943,-8442172.179485014,5136585.504040313
East End Family Health Center,117 N Negley Avenue,,,Pittsburgh,15206,Allegheny,412-404-4000,http://pchspitt.org/location/,21074,-79.930452,40.464065,-8897817.215516197,4933609.886243208
Elizabeth A Gernhardt DO Family Practice,1732 Wyoming Avenue,XX,,Forty Fort,18704,Luzerne,570-331-9134,,21855,-75.863716,41.29669,-8445110.23480552,5056202.357870931
Erie County Health Department,606 West 2nd Street,,,Erie,16507,Erie,814-451-6700,https://eriecountypa.gov/covid-19/covid-19-vaccine/,67,-80.101529,42.128349,-8916861.420042636,5180224.9335637875
Evangelical Community Hospital,1 Hospital Drive,,,Lewisburg,17837,Union,570-522-4530,https://www.evanhospital.com/virus/,271,-76.9037688,40.9602193,-8560888.382899638,5006475.78920231
Exeter Township Health Center,2795 Sullivans Trail,,,Falls,18615,Wyoming,570-704-4117,,21715,-75.857415,41.445364,-8444408.810694033,5078256.362353654
FPC -Mt Pleasant Mills Family Practice Center,9627 Route 35,10,,Mount Pleasant Mills,17853,Snyder,570-539-2561,https://www.fpcdoctors.com/locations/mt-pleasant-mills/,17933,-77.022151,40.72174,-8574066.629122626,4971384.610791403
FPC-Elysburg Family Practice Center,289 South Market Street,,,Elysburg,17824,Northumberland,570-672-9885,https://www.fpcdoctors.com/locations/elysburg/,17919,-76.547862,40.860354,-8521269.019153774,4991765.679818643
FPC-Herndon Family Practice Center,1244 State Route 225,,,Herndon,17830,Northumberland,570-758-3511,https://www.fpcdoctors.com/herndon/,17923,-76.830153,40.665398,-8552693.5095293,4963112.5174984075
FPC-Hughesville Family Practice Center,246 South Main Street,,,Hughesville,17737,Lycoming,,,488,-76.728156,41.237445,-8541339.255426858,5047428.085016323
FPC-Lewisburg Family Practice Center,131 JPM Road,A,Suite A,Lewisburg,17837,Union,570-523-6115,https://www.fpcdoctors.com/lewisburg/,17925,-76.891618,40.976893,-8559535.762030909,5008933.983823157
FPC-Mifflinburg Family Practice Center,137 Forest Hill Rd,,,Mifflinburg,17844,Union,570-966-1004,https://www.fpcdoctors.com/locations/mifflinburg/,17928,-77.039466,40.9251,-8575994.126105713,5001300.200244505
FPC-Mifflintown Family Practice Center,2813 Industrial Park Road,Suite C,,Mifflintown,17059,Juniata,717-436-8283,,17929,-77.368437,40.583402,-8612615.010311466,4951086.396481615
FPC-Mill Hall Family Practice Center,7133 Nittany Valley Drive,,,Mill Hall,17751,Clinton,570-726-7992,https://www.fpcdoctors.com/mill-hall/,17930,-77.489567,41.064673,-8626099.140231255,5021885.601696223
FPC-Millersburg Family Practice Center,100 South First St,,,Millersburg,17061,Dauphin,717-692-4834,https://www.fpcdoctors.com/millersburg/,17931,-76.908962,40.554697,-8561466.487279227,4946879.800351993
FPC-Pagana Defazio Family Practice Center,1072 MARKET ST,,,Sunbury,17801,Northumberland,570-286-8521,https://www.fpcdoctors.com/sunbury-pagana-defazio/,10041,-76.783898,40.859111,-8547544.426482657,4991582.726401802
FPC-Selinsgrove 1 Family Practice Center,21 Susquehanna Valley Mall Drive,A,,Selinsgrove,17870,Snyder,570-374-7852,https://www.fpcdoctors.com/locations/selinsgrove/,17935,-76.848969,40.829295,-8554788.097068066,4987195.227752931
FPC-Selinsgrove 2 Family Practice Center,21 Susquehanna Valley Mall Drive,D,,Selinsgrove,17870,Snyder,570-374-7852,https://www.fpcdoctors.com/selinsgrove-pagana/,17936,-76.848969,40.829295,-8554788.097068066,4987195.227752931
FPC-Shamokin Dam Family Practice Center,3057 N Susquehanna Trail,,PO Box 310,Shamokin Dam,17876,Snyder,570-743-1112,https://www.fpcdoctors.com/locations/shamokin-dam/,17937,-76.821799,40.846937,-8551763.546503212,4989791.053537977
FPC-Sunbury Family Practice Center,409 N 4th Street,,,Sunbury,17801,Northumberland,570-286-1482,https://www.fpcdoctors.com/sunbury/,17941,-76.788644,40.865977,-8548072.748785961,4992593.355109548
FPC-Valley View Family Practice Center,105 W Main Street,,,Valley View,17983,Schuylkill,570-682-8026,,17942,-76.540262,40.645753,-8520422.991023747,4960229.895643479
FPC-Watsontown Family Practice Center,12560 State Route 405,,,Watsontown,17777,Northumberland,570-538-2501,https://www.fpcdoctors.com/watsontown/,435,-76.876917,41.099997,-8557899.254196757,5027102.405950227
Family Halth Clinic of Bk-Susquehanna,2872 Turnpike Street,,,Susquehanna,18847,Susquehanna,570-853-3135,,632,-75.593922,41.947349,-8415076.90410644,5153095.839526434
Family Health Care Center of Punxsutawney,83 Hillcrest Drive,200,,Punxsutawney,15767,Jefferson,814-938-3550,,9534,-79.000075,40.960224,-8794248.12163042,5006476.482033271
Family Matters Direct Primary Care,4284 William Flinn Highway,102,,Allison Park,15101,Allegheny,412-685-3373,https://www.familymattersdpc.com/resources/vax,1263,-79.954654,40.5756,-8900511.369832374,4949942.867854421
Family Pharmacy of  Jessup,128 Constitution Ave,,,Jessup,18434,Lackawanna,570-383-7311,https://www.mygnp.com/pharmacies/family-pharmacy-of-jessup-jessup-pa-18434-1224/,1099,-75.573794,41.476318,-8412836.265395755,5082854.367330168
Family Pharmacy of Archbald,1 KENNEDY PLAZA,1,4 KELLY STREET,Archbald,18403,Lackawanna,570-876-3312,https://www.mygnp.com/pharmacies/family-pharmacy-of-archbald-archbald-pa-18403-1627/,1100,-75.554671,41.491204,-8410707.502773315,5085066.362718328
Family Pharmacy of Carbondale,70 N Church St,,,Carbondale,18407,Lackawanna,570-281-6300,https://www.mygnp.com/pharmacies/family-pharmacy-of-carbondale-inc-carbondale-pa-18407/,1101,-75.498901,41.57483,-8404499.214771774,5097502.286044749
Family Pharmacy of Olyphant,110 Delaware Ave,,,Olyphant,18447,Lackawanna,570-487-4447,https://www.mygnp.com/pharmacies/family-pharmacy-of-olyphant-olyphant-pa-18447/,1102,-75.603365,41.469288,-8416128.094058001,5081809.916268357
Family Practice Center Williamsport,1205 River Avenue,,1st Floor,Williamsport,17701,Lycoming,570-323-5991,https://www.fpcdoctors.com/williamsport-cornerstone/,21034,-76.981495,41.252686,-8569540.823904933,5049684.539421214
GEISINGER WYOMING VALLEY,1000 EAST MOUNTAIN BLVD,,,WILKES BARRE,18711,Luzerne,570-284-3657,https://www.geisinger.org/covidvax,7736,-75.8218682,41.2579465,-8440451.7590187,5050463.48705484
GEISINGER-LEWISTOWN HOSPITAL,400 Highland Ave,,Pharmacy Dept. 6th floor,Lewistown,17044,Mifflin,570-284-3657,https://www.geisinger.org/covidvax,9650,-77.567472,40.617902,-8634771.485161506,4956144.614798965
GHS GEISINGER MEDICAL CENTER,100 N ACADEMY AVENUE,,,Danville,17822,Montour,570-284-3657,https://www.geisinger.org/covidvax,7674,-76.605353,40.966897,-8527668.88799897,5007460.204352507
GHS-BRADFORD,116 INSTERSTATE PARKWAY,Suite 21,,BRADFORD,16701,Mc Kean,814-368-4143,https://www.brmc.com/,7667,-78.6711874,41.9511791,-8757636.521470198,5153669.113076219
GIANT PHARMACY-6455,3560 ROUTE 611,SUITE 105,,BARTONSVILLE,18321,Monroe,1.844.915.1814,https://www.giantfoodstores.com/covid-19vaccine,16706,-75.273288,41.002192,-8379384.09049543,5012664.988723605
Geisinger St. Lukes Hospital,100 Paramount Blvd,,,Orwigsburg,17961,Schuylkill,866-785-8537,https://geisingerstlukes.org/covid-19/covid-19-vaccine,1103,-76.088038,40.65259,-8470081.645619249,4961233.030993419
Giant Eagle Pharmacy #0023,100 Buffalo Plaza,,,Sarver,16055,Butler,,https://www.gianteagle.com/covidvaccine,1121,-79.725839,40.706397,-8875039.80054651,4969131.268964137
Giant Eagle Pharmacy #2445,419 South Main Street,,,Greenville,16125,Mercer,,https://www.gianteagle.com/covidvaccine,1170,-80.370939,41.409997,-8946852.004057253,5073005.520441563
Giant Eagle Pharmacy #2455,3220 Leechburg Road,,,New Kensington,15068,Westmoreland,,https://www.gianteagle.com/covidvaccine,1273,-79.709443,40.585272,-8873214.606175464,4951360.499677484
Giant Eagle Pharmacy- 95,18511 Smock Highway,,,Meadville,16335,Crawford,,https://www.gianteagle.com/covidvaccine,16230,-80.167041,41.620104,-8924154.182523485,5104241.646871732
Giant Eagle Pharmacy-1481,541 Allegheny Blvd.,,,Franklin,16323,Venango,,https://www.gianteagle.com/covidvaccine,16229,-79.80862,41.402269,-8884254.93931387,5071858.54600305
Giant Eagle Pharmacy-15,1701 Lincoln Highway,,,North Versailles,15137,Allegheny,,https://www.gianteagle.com/covidvaccine,16248,-79.786217,40.370531,-8881761.048761627,4919933.835444078
Giant Eagle Pharmacy-17,6320 Shakespeare St.,,,Pittsburgh,15206,Allegheny,,https://www.gianteagle.com/covidvaccine,16231,-79.921415,40.458867,-8896811.221277896,4932849.362671951
Giant Eagle Pharmacy-18,1671 Butler Plank Road,,,Glenshaw,15116,Allegheny,,https://www.gianteagle.com/covidvaccine,16314,-79.963694,40.537471,-8901517.698029146,4944356.2688811105
Giant Eagle Pharmacy-2,1800 McKees Rocks Road,rr,rrrrr,Mc Kees Rocks,15136,Allegheny,,https://www.gianteagle.com/covidvaccine,16232,-80.097088,40.469379,-8916367.050184023,4934387.4427088965
Giant Eagle Pharmacy-2404,200 Allegheny River Blvd.,,,Verona,15147,Allegheny,,https://www.gianteagle.com/covidvaccine,16235,-79.844001,40.498134,-8888193.534217626,4938596.006860285
Giant Eagle Pharmacy-2409,1705 S. Braddock Ave.,,,Pittsburgh,15218,Allegheny,1-412-371-4456,https://www.gianteagle.com/covidvaccine,16239,-79.888323,40.425201,-8893127.436688565,4927925.0870549325
Giant Eagle Pharmacy-2415,1521 N. Main St.,,,Butler,16001,Butler,,https://www.gianteagle.com/covidvaccine,16244,-79.9085142,40.8668263,-8895375.11079107,4992718.373600413
Giant Eagle Pharmacy-2435,1117 Milltown Road,,,Verona,15147,Allegheny,,https://www.gianteagle.com/covidvaccine,17868,-79.789959,40.49831,-8882177.606296176,4938621.771664903
Giant Eagle Pharmacy-2440,700 Moraine Point Plaza,,,Butler,16001,Butler,,https://www.gianteagle.com/covidvaccine,16249,-79.9085142,40.8668263,-8895375.11079107,4992718.373600413
Giant Eagle Pharmacy-2491,400 Northtowne Square,,,Gibsonia,15044,Allegheny,1-724-443-7979,https://www.gianteagle.com/covidvaccine,16253,-79.940572,40.635717,-8898943.768763022,4958757.584118489
Giant Eagle Pharmacy-2492,51 Walsh Road,,,Pittsburgh,15205,Allegheny,,https://www.gianteagle.com/covidvaccine,16254,-80.071037,40.439692,-8913467.066129368,4930044.361725715
Giant Eagle Pharmacy-25,1029 West View Park Drive,,,Pittsburgh,15229,Allegheny,,https://www.gianteagle.com/covidvaccine,16256,-80.037028,40.516496,-8909681.201566981,4941284.401652541
Giant Eagle Pharmacy-32,4810 Old William Penn Highway,,,Export,15632,Westmoreland,,https://www.gianteagle.com/covidvaccine,16259,-79.663104,40.423951,-8868056.172291595,4927742.298887965
Giant Eagle Pharmacy-37,5 Quaker Village S.C.,,,Leetsdale,15056,Allegheny,,https://www.gianteagle.com/covidvaccine,16261,-80.2105248,40.5661982,-8928994.776997242,4948565.035848822
Giant Eagle Pharmacy-4008,223 Grove City Rd.,,,Slippery Rock,16057,Butler,,https://www.gianteagle.com/covidvaccine,16266,-80.051916,41.070462,-8911338.526145909,5022740.354701329
Giant Eagle Pharmacy-4012,2357 E. State Street,,,Hermitage,16148,Mercer,,https://www.gianteagle.com/covidvaccine,16268,-80.466535,41.233492,-8957493.702099126,5046842.922986576
Giant Eagle Pharmacy-4035,606 Erie St.,,,Edinboro,16412,Erie,,https://www.gianteagle.com/covidvaccine,16270,-80.127804,41.886668,-8919786.339663228,5144017.9488771055
Giant Eagle Pharmacy-4038,4265 Buffalo Rd,,,Erie,16510,Erie,,https://www.gianteagle.com/covidvaccine,16269,-80.004773,42.145237,-8906090.591391442,5182760.131230437
Giant Eagle Pharmacy-4050,9125 Ridge Road,,,Girard,16417,Erie,,https://www.gianteagle.com/covidvaccine,16271,-80.301825,42.009974,-8939158.268770564,5162473.617988604
Giant Eagle Pharmacy-4077,3230 Wilmington Road,,,New Castle,16105,Lawrence,,https://www.gianteagle.com/covidvaccine,16272,-80.357161,41.053426,-8945318.244113103,5020225.183316577
Giant Eagle Pharmacy-4093,2501 West 12th St.,,,Erie,16505,Erie,,https://www.gianteagle.com/covidvaccine,16227,-80.136586,42.103045,-8920763.947431376,5176427.605036188
Giant Eagle Pharmacy-41,41 Towne Center Drive,,,Leechburg,15656,Armstrong,,https://www.gianteagle.com/covidvaccine,16274,-79.611087,40.608295,-8862265.666339,4954735.821971442
Giant Eagle Pharmacy-42,206 Seven Fields Blvd,,,Seven Fields,16046,Butler,,https://www.gianteagle.com/covidvaccine,16275,-80.057455,40.689224,-8911955.124805413,4966609.780740227
Giant Eagle Pharmacy-4237,2067 Interchange Rd,,,Erie,16509,Erie,,https://www.gianteagle.com/covidvaccine,16273,-80.100836,42.064491,-8916784.275635516,5170644.783753925
Giant Eagle Pharmacy-43,155 Towne Centre Drive,,,Wexford,15090,Allegheny,724-934-0201,https://www.gianteagle.com/covidvaccine,16276,-80.054427,40.631601,-8911618.049387291,4958153.818480215
Giant Eagle Pharmacy-45,9805 McKnight Road,,,Pittsburgh,15237,Allegheny,,,16277,-80.037468,40.585762,-8909730.182142928,4951432.3247767165
Giant Eagle Pharmacy-47,100 Settlers Ridge Center Dr,,,Pittsburgh,15205,Allegheny,,https://www.gianteagle.com/covidvaccine,16316,-80.152732,40.441906,-8922561.311929723,4930368.194243471
Giant Eagle Pharmacy-470,881 Hills Plaza,,,Ebensburg,15931,Cambria,,https://www.gianteagle.com/covidvaccine,16322,-78.758999,40.469103,-8767411.664067943,4934347.056251667
Giant Eagle Pharmacy-471,475 Ben Franklin Road S,,,Indiana,15701,Indiana,,https://www.gianteagle.com/covidvaccine,16323,-79.191387,40.614027,-8815544.876053065,4955576.351411118
Giant Eagle Pharmacy-482,7 Cottonwood Street,,,Northern Cambria,15714,Cambria,,https://www.gianteagle.com/covidvaccine,16281,-78.783121,40.661349,-8770096.912824858,4962518.315399423
Giant Eagle Pharmacy-483,"Cranberry Mall, Route 19",,,Cranberry Twp,16066,Butler,,https://www.gianteagle.com/covidvaccine,16282,-80.115075,40.7011099,-8918369.353864923,4968354.90200768
Giant Eagle Pharmacy-495,289 State Route 288,,,Ellwood City,16117,Lawrence,,https://www.gianteagle.com/covidvaccine,16287,-80.258556,40.846442,-8934341.585723432,4989718.2103243405
Giant Eagle Pharmacy-5103,2611 Freeport Rd.,,,Pittsburgh,15238,Allegheny,,https://www.gianteagle.com/covidvaccine,16288,-79.838606,40.537244,-8887592.965564797,4944323.01873498
Giant Eagle Pharmacy-52,132 Ben Avon Heights Road,,,Pittsburgh,15237,Allegheny,,https://www.gianteagle.com/covidvaccine,16289,-80.070186,40.522822,-8913372.333242703,4942210.766777808
Giant Eagle Pharmacy-60,4010 Monroeville Boulevard,,,Monroeville,15146,Allegheny,,https://www.gianteagle.com/covidvaccine,16292,-79.772119,40.435903,-8880191.666580424,4929490.1852891175
Giant Eagle Pharmacy-61,2021 Wharton Ave.,,,Pittsburgh,15203,Allegheny,,https://www.gianteagle.com/covidvaccine,16293,-79.977105,40.4267627,-8903010.603720173,4928153.460052407
Giant Eagle Pharmacy-62,111 West Madison Street,,,Rochester,15074,Beaver,724-775-1820,https://www.gianteagle.com/covidvaccine,16294,-80.288504,40.70235,-8937675.381833708,4968536.99491555
Giant Eagle Pharmacy-63,Murray Ave. & Loretta St.,,,Pittsburgh,15217,Allegheny,,https://www.gianteagle.com/covidvaccine,16295,-79.92887,40.42193,-8897641.10808176,4927446.774165063
Giant Eagle Pharmacy-6379,420 E. Waterfront Drive,,,Homestead,15120,Allegheny,1-412-462-5359,https://www.gianteagle.com/covidvaccine,16297,-79.902539,40.4000594,-8894709.954569682,4924249.270131064
Giant Eagle Pharmacy-6386,1700 New Butler Rd.,,,New Castle,16101,Lawrence,,https://www.gianteagle.com/covidvaccine,16298,-80.311466,40.985448,-8940231.499981303,5010195.484056374
Giant Eagle Pharmacy-65,4110 Brighton Rd.,,,Pittsburgh,15212,Allegheny,412-761-1133,https://www.gianteagle.com/covidvaccine,16300,-80.04368,40.489769,-8910421.698819734,4937371.524623709
Giant Eagle Pharmacy-66,2650 Constitution Blvd.,,,Beaver Falls,15010,Beaver,724-843-3922,https://www.gianteagle.com/covidvaccine,16301,-80.379393,40.7757,-8947793.099032417,4979313.547284079
Giant Eagle Pharmacy-67,8080 McIntyre Square Drive,,,Pittsburgh,15237,Allegheny,,https://www.gianteagle.com/covidvaccine,16302,-80.018394,40.55701,-8907606.874175537,4947218.693876951
Giant Eagle Pharmacy-68,5990 University Blvd.,Suite 4,,Moon Township,15108,Allegheny,1-412-269-0254,https://www.gianteagle.com/covidvaccine,16283,-80.217714,40.520301,-8929795.075080452,4941841.586765523
Giant Eagle Pharmacy-69,9001 Frankstown Road,,,Pittsburgh,15235,Allegheny,412-371-0858,https://www.gianteagle.com/covidvaccine,16240,-79.86468,40.461505,-8890495.50996774,4933235.323224646
Giant Eagle Pharmacy-70,5550 Centre Ave,,,Pittsburgh,15232,Allegheny,724-941-7220,https://www.gianteagle.com/covidvaccine,16303,-79.934696,40.456996,-8898289.655435123,4932575.629555578
Giant Eagle Pharmacy-71,181 Sophira Lane,,,Altoona,16602,Blair,,https://www.gianteagle.com/covidvaccine,16285,-78.38731,40.485138,-8726035.433854481,4936693.696988398
Giant Eagle Pharmacy-72,910 Freeport Rd.- Waterworks,,,Pittsburgh,15238,Allegheny,412-781-6605,https://www.gianteagle.com/covidvaccine,16304,-79.891718,40.486677,-8893505.36635981,4936918.951296583
Giant Eagle Pharmacy-74,1165 McKinney Lane,,,Pittsburgh,15220,Allegheny,,https://www.gianteagle.com/covidvaccine,16306,-80.035517,40.423528,-8909512.997816391,4927680.444141491
Giant Eagle Pharmacy-75,1600 State St.,,,Baden,15005,Beaver,724-869-8420,https://www.gianteagle.com/covidvaccine,16252,-80.199279,40.63871,-8927742.90026768,4959196.643099232
Giant Eagle Pharmacy-77,254 Yost Blvd.,,,Pittsburgh,15221,Allegheny,,https://www.gianteagle.com/covidvaccine,16307,-79.854621,40.41342,-8889375.74720985,4926202.479972176
Giant Eagle Pharmacy-78,230 Rodi Rd.,,,Penn Hills,15235,Allegheny,412-241-7744,https://www.gianteagle.com/covidvaccine,16308,-79.8242,40.462905,-8885989.296980428,4933440.160606752
Giant Eagle Pharmacy-8,200 Tarentum Bridge Road,,,New Kensington,15068,Westmoreland,724-339-4940,https://www.gianteagle.com/covidvaccine,16313,-79.750922,40.590279,-8877832.02733408,4952094.459711862
Giant Eagle Pharmacy-80,40 White St,,,Brookville,15825,Jefferson,,https://www.gianteagle.com/covidvaccine,16317,-79.084019,41.159862,-8803592.72496557,5035949.94450292
Giant Eagle Pharmacy-84,100 N Main Street,,,Du Bois,15801,Clearfield,,https://www.gianteagle.com/covidvaccine,16318,-78.767483,41.123176,-8768356.098627832,5030527.107663663
Giant Eagle Pharmacy-88,110 S. Martin St,,,Titusville,16354,Crawford,,https://www.gianteagle.com/covidvaccine,16319,-79.671506,41.626105,-8868991.47865324,5105135.293943287
Giant Eagle Pharmacy-91,318 Cedar Ave,,,Pittsburgh,15212,Allegheny,,https://www.gianteagle.com/covidvaccine,16279,-80.000886,40.451031,-8905657.892530728,4931702.982399418
Giant Eagle Pharmacy-94,3113 Green Garden Rd,,,Aliquippa,15001,Beaver,724-378-8896,https://www.gianteagle.com/covidvaccine,16237,-80.280804,40.600683,-8936818.221754601,4953619.724384114
Glendale Area Medical Association Inc,850 Main Street,,PO Box 375,Coalport,16627,Clearfield,814-672-5141,https://www.glendale-medical.com/,9439,-78.534927,40.747707,-8742468.08312691,4975199.424705064
Grove City Medical Center,631 NORTH BROAD STREET EXT.,,,Grove City,16127,Mercer,,https://www.ahn.org/coronavirus/independent-health-care-workers.html,21030,-80.083247,41.170696,-8914826.277111953,5037551.980960723
Guthrie Clinic Troy,285 Guthrie Drive,,,Troy,16947,Bradford,570-297-4104,https://www.guthrie.org/safety-hospitals-and-clinics/scheduling-covid-19-vaccine-appointment,7423,-76.794804,41.792802,-8548758.476849247,5129992.54222106
Guthrie Clinic Wellsboro,110 Plaza Lane,,,Wellsboro,16901,Tioga,570-724-4241,https://www.guthrie.org/safety-hospitals-and-clinics/scheduling-covid-19-vaccine-appointment,7425,-77.281927,41.744632,-8602984.76116294,5122802.981925425
Guthrie Medical Group-Towanda,132 Colonial Drive,,,Towanda,18848,Bradford,570-265-6165,https://www.guthrie.org/safety-hospitals-and-clinics/scheduling-covid-19-vaccine-appointment,7422,-76.452357,41.782639,-8510637.451185565,5128475.225410084
Harrolds Pharmacy,250 Old River Road,,,Wilkes Barre,18702,Luzerne,,,549,-75.908014,41.241584,-8450041.46560868,5048040.818527577
Hartzells Pharmacy,300 American Street,,,Catasauqua,18032,Lehigh,484-240-6432,https://Www.hartzells.com,398,-75.467588,40.653512,-8401013.467556564,4961368.316142673
Hazle Drugs,1 East Broad Street,,,Hazleton,18201,Luzerne,570-454-2476,https://www.hazledrugs.com,679,-75.973859,40.954103,-8457371.297479965,5005574.222066686
Heritage Valley Health System-Beaver,1000 Dutch Ridge Road,,,Beaver,15009,Beaver,724-770-7555,https://www.heritagevalley.org/pages/covid19vaccine,11043,-80.32435,40.710427,-8941665.740300683,4969723.082566684
Heritage Valley Kennedy,25 Heckel Rd.,,,Mc Kees Rocks,15136,Allegheny,1-877-771-4847,https://cms.hvhs.org/carelink/,15124,-80.091487,40.471671,-8915743.54971609,4934722.832309703
Hilltop Community Healthcare Center,151 Ruth Street,,Rear of Building,Pittsburgh,15211,Allegheny,412-431-3520,http://www.storoxfqhc.org/,102,-80.004897,40.423008,-8906104.3950083,4927604.405742644
Hilltop Pharmacy,818 E. Warrington Ave,,,Pittsburgh,15210,Allegheny,412-431-5766,,936,-79.992974,40.421733,-8904777.132719573,4927417.96792527
Hometown Health Care of NEPA Inc.,921 Drinker Turnpike,13,,Moscow,18444,Lackawanna,570-795-9795,https://www.facebook.com/HometownHealthNEPA,1113,-75.514343,41.310335,-8406218.210348602,5058224.331511882
Hyde Drug Store,2412 Wilmington Rd,,,New Castle,16105,Lawrence,724-652-1451,https://calendly.com/hydedrugstore/covid-vaccination,1030,-80.353642,41.026194,-8944926.510825,5016206.040930445
INDIANA REGIONAL MEDICAL CENTER,835 HOSPITAL ROAD,,,Indiana,15701,Indiana,724-357-7075 press #8,https://www.irmc.org/vaccine,15554,-79.158805,40.608616,-8811917.86440404,4954782.890887434
Integrated Health 21,2403 SIDNEY STREET SUITE 220,,,Pittsburgh,15203,Allegheny,412-481-1644,,1279,-79.970795,40.429159,-8902308.177733269,4928503.889914996
Jamestown Pharmacy,121 LIberty Street,,,Jamestown,16134,Mercer,724-932-5355,https://walbergfamilypharmacies.com/jamestownpharmacy,1406,-80.442665,41.484546,-8954836.505853891,5084076.949823898
KRHC-Cameron County HC-MAIN,90 East 2nd Street,,,Emporium,15834,Cameron,1-814-486-1115,http://www.keystoneruralhealth.com/,96,-78.23554,41.510226,-8709140.474736787,5087893.689753965
KRHC-Ridgway Medical Center,49 Ridgmont Dr,1,,Ridgway,15853,Elk,814-245-2119,www.keystoneruralhealth.com,951,-78.743604,41.435018,-8765697.90050718,5076720.023971562
Klingensmiths Drug Stores Inc,313 Ford Street,,,Ford City,16226,Armstrong,724-763-1201,http://klingsrx.com/covid/,18257,-79.532198,40.771116,-8853483.78302981,4978639.71956298
LAKOTA HEALTH CARE FAMILY PRACTICE,2489 US 6,Suite 7,,Hawley (Part-Pike),18428,Pike,570-226-2200,,21706,-75.170205,41.477317,-8367908.943425987,5083002.798515651
LM JADE INC. DBA THE MEDICINE SHOPPE #0077,1000 MARKET STREET,,,Bloomsburg,17815,Columbia,570-784-9582,https://www.bloomsburgms.com/covid-19-vaccination-information/,1322,-76.451779,40.994526,-8510573.108519886,5011534.283622356
LVPG Family Medicine-Schuylkill Medical Plaza,200 Schuylkill Medical Plaza,,,Pottsville,17901,Schuylkill,,https://www.lvhn.org/treatments/covid-19-vaccines,17321,-76.188744,40.681748,-8481292.186259078,4965512.292854318
LVPG Family Medicine-Tobyhanna,100 Community Drive,102,,Tobyhanna,18466,Monroe,,https://www.lvhn.org/treatments/covid-19-vaccines,17194,-75.37146,41.147698,-8390312.547545588,5034151.554909142
Lehigh Valley Health Network,1200 S. CEDAR CREST BLVD,,,Allentown,18103,Lehigh,833-584-6283,https://www.LVHN.org/vaccines,45257,-75.518762,40.56676,-8406710.131178418,4948647.362094393
Lords Valley Village Pharmacy Inc,658 Rt 739,5,,Hawley (Part-Wayne),18428,Pike,570-775-9555,https://www.mygnp.com/pharmacies/lords-valley-village-pharmacy-inc-hawley-pa-18428/,1106,-75.040697,41.344471,-8353492.1788123315,5063284.602426846
MOUNT NITTANY MEDICAL CENTER,PHARMACY DEPT,,1800 EAST PARK AVENUE,State College,16803,Centre,,https://www.mountnittanycoronavirus.org/,11666,-77.847578,40.821071,-8665952.742449645,4985985.392847116
Mainline LTC Pharmacy,1049 Shoemaker St.,2,,Nanty Glo,15943,Cambria,814-736-3044,https://mainlinepharmacy.com/,1073,-78.834503,40.471478,-8775816.730900798,4934694.590073845
Mainline Pharmacy-Hastings,317 Beaver St.,,,Hastings,16646,Cambria,724-459-7400,https://mainlinepharmacy.com/,1072,-78.713076,40.664633,-8762299.539092243,4963000.248840341
Mauch Chunk Pharmacy,1204 North Street,,,Jim Thorpe,18229,Carbon,717-323-8230,https://covid-19schedulinglink.as.me/vaccine,1045,-75.726208,40.881724,-8429802.914265519,4994911.6026929
Meadville Medical Center,751 Liberty Street,,,Meadville,16335,Crawford,814-373-2986,,13126,-80.146296,41.641636,-8921844.85968698,5107448.500193967
Means-Lauf Super Drug,265 Allegheny Blvd,1,,Brookville,15825,Jefferson,814-849-7504,https://meanslauf.com/wait-list,18259,-79.098417,41.175316,-8805195.502994014,5038235.2264234
Medicine Shoppe Pharmacy-353,2665 Brodhead Road,,,Aliquippa,15001,Beaver,724-375-5561,https://aliquippa.medicineshoppe.com/,543,-80.280804,40.600683,-8936818.221754601,4953619.724384114
Mercer Pharmacy,737 Greenville Road,,,Mercer,16134,Mercer,724-662-1414,https://walbergfamilypharmacies.com/mercerpharmacy,1408,-80.469152,41.523593,-8957785.02520653,5089880.985256959
Metro Community Health Center,1789 South Braddock  Avenue,410,,Pittsburgh,15218,Allegheny,1-412-247-2310,https://metrocommunityhealthcenter.org/,164,-79.887236,40.423971,-8893006.432402072,4927745.223471898
Millcreek Community Hospital,5515 Peach street,,,Erie,16509,Erie,1-866-532-6619,https://lecomisaging.com/,21861,-80.093648,42.074182,-8915984.111135695,5172098.033118924
Millcreek Manor Pharmacy,5535 Peach St,,,Erie,16509,Erie,814-868-3888,https://lecomhealth.com/coronavirus/,1320,-80.093434,42.073007,-8915960.288764665,5171921.819874627
Neighborhood HCLV-Bethlehem,1210 East 4th Street,,,Bethlehem (Part-Northampton),18015,Northampton,,,617,-75.359712,40.611142,-8389004.766167747,4955153.291555656
Newhard Pharmacy,1001 Main Street,,,Northampton,18067,Northampton,610-262-6721,https://www.newhardpharmacy.com,43163,-75.488386,40.678614,-8403328.690326082,4965052.2536243405
North Side Christian Health Center,816 Middle Street,,,Pittsburgh,15212,Allegheny,412-321-4001,https://www.ahn.org/coronavirus.html,166,-79.999438,40.454979,-8905496.70190806,4932280.544723503
Noxen Medical Center,2888 SR29 S,2,,Noxen,18636,Wyoming,570-704-4234,,21859,-76.059938,41.418797,-8466953.567927958,5074311.765146192
PHN-Altoona Community Health Center,1701 12th Avenue,F,Altoona,Altoona,16601,Blair,724-699-9211,https://primary-health.net/covid-vaccine-clinic.aspx,10912,-78.40748,40.513032,-8728280.747983782,4940777.178366111
PHN-Clarion Community Health Center,30 Pinnacle Drive,101,,Clarion,16214,Clarion,724-699-9211,https://primary-health.net/covid-vaccine-clinic.aspx,10901,-79.369825,41.199305,-8835408.503351236,5041783.701723672
PHN-Ebensburg Health Center,152 Zeman Drive,Suite 301,,Ebensburg,15931,Cambria,724-699-9211,https://primary-health.net/covid-vaccine-clinic-aspx,17985,-78.758879,40.466036,-8767398.305729046,4933898.28023144
PHN-Ellwood City Health Center,304 Evans Drive,201,,Ellwood City,16117,Lawrence,724-699-9211,https://primary-health.net/covid-vaccine-clinic.aspx,997,-80.275819,40.86827,-8936263.294092996,4992930.89252205
PHN-Greenville Community Health Center,348 Main Street,,,Greenville,16125,Mercer,724-699-9211,https://primary-health.net/covid-vaccine-clinic.aspx,684,-80.379156,41.408339,-8947766.7163131,5072759.4318740005
PHN-Hoffman Memorial Medical Center,419 Kellys Way,,,East Brady,16028,Clarion,724-699-9211,http://primary-health.net/covid-vaccine-clinic.aspx,10900,-79.615798,40.98736,-8862790.092460128,5010477.445465607
PHN-Jacksonville Family Medical Center,29 Saltsburg Road,,,Clarksburg,15725,Indiana,724-699-9211,https://primary-health.net/covid-vaccine-clinic.aspx,10902,-79.299132,40.540062,-8827538.994588586,4944735.797253598
PHN-Lewistown Community Health Center,106 Derry Heights,100,,Lewistown,17044,Mifflin,724-699-9211,https//primary-health.net/covid-vaccine-clinic.aspx,15487,-77.584333,40.59601,-8636648.443095772,4952934.616031926
PHN-Oil City Health Center,811 Grandview Road,100,,Oil City,16301,Venango,724-699-9211,https://www.primary-health.net/covid-vaccine-clinic.aspx,18724,-79.688348,41.441276,-8870866.32151718,5077649.281923998
PHN-Punxsutawney Community HC,200 Prushnok Drive,202,,Punxsutawney,15767,Jefferson,724-699-9211,https://primary-health.net/covid-vaccine-clinic.aspx,7444,-78.96234,40.945202,-8790047.480645338,5004262.328202497
PHN-Sandy Lake Community Health Center,3205 S. Main Street,,,Sandy Lake,16145,Mercer,724-699-9211,https://primary-health.net/covid-vaccine-clinic.aspx,353,-80.08216,41.350371,-8914705.27282546,5064159.478645649
PHN-Schuylkill Community Health Center,210 Sunbury Street,,,Minersville,17954,Schuylkill,724-699-9211,https://primary-health.net/covid-vaccine-clinic.aspx,7781,-76.260883,40.691099,-8489322.663005413,4966885.052832386
PHN-Shamokin Community Health Center,531 North Franklin Street,,,Shamokin,17872,Northumberland,724-699-9211,https://primary-health.net/covid-vaccine-clinic.aspx,15630,-76.550216,40.791467,-8521531.065235104,4981631.581600345
PHN-Sharon Medical Group Pediatrics,63 Pitt Street,202,,Sharon,16146,Mercer,724-699-9211,https://primary-health.net/covid-vaccine-clinic.aspx,10904,-80.507928,41.233798,-8962101.549781531,5046888.218859615
PHN-Sharon Medical Group-Suite 2,63 Pitt St,301,,Sharon,16146,Mercer,724-699-9211,https://primary-health.net/covid-vaccine-clinic.aspx,10913,-80.507928,41.233798,-8962101.549781531,5046888.218859615
PHN-Sheakleyville Health Center,3339 Perry Highway,,,Sheakleyville,16151,Mercer,724-699-9211,https://primary-health.net/covid-vaccine-clinic.aspx,10906,-80.2080329,41.4426478,-8928717.379958134,5077852.99413142
PHN-Shenandoah Health Center,624 West Centre Street,,,Shenandoah,17976,Schuylkill,724-699-9211,https://primary-health.net/covid-vaccine-clinic.aspx,18609,-76.20854,40.819298,-8483495.86689882,4985724.585985376
PHN-Titusville Community Health,120 South Martin St,,,Titusville,16354,Crawford,724-699-9211,https://primary-health.net/covid-vaccine-clinic.aspx,811,-79.671509,41.625757,-8868991.812611712,5105083.468778562
PHN-Tri-County Community Health Center,1555 Shawna Road,,,Cherry Tree,15724,Cambria,724-699-9211,https://primary-health.net/covid-vaccine-clinic.aspx,469,-78.799248,40.71682,-8771892.162252882,4970661.980952335
Palmer Pharmacy LLC,738 Little Deer Creek Valley Road,,,Russellton,15076,Allegheny,724-265-1632,,1490,-79.833717,40.617642,-8887048.724574307,4956106.485127179
Partners Pharmacy,3036 Emrick Boulevard,,,Bethlehem (Part-Northampton),18020,Northampton,610-977-8460,,1053,-75.295022,40.664766,-8381803.5083083315,4963019.76735116
Patton Pharmacy and VS Variety,503 Railroad Avenue Suite 2,,,Patton,16668,Cambria,814-674-3693,https://www.pattonrx.com/covid19/,1117,-78.650474,40.638379,-8755330.716329603,4959148.085992617
Pediatric Associates of Kingston,451 3rd Avenue,,Suite 1,Kingston,18704,Luzerne,570-288-6543,https://pakpeds.com/,9120,-75.880926,41.260364,-8447026.043242073,5050821.478992133
Pediatrics of Northeastern Pennsylvania,920 Viewmont Drive,,,Dickson City,18519,Lackawanna,570-346-1464,https://pedsofnepa.com/,7634,-75.646983,41.455142,-8420983.627607422,5079708.580255807
Penn Highlands Brookville,100 Hospital Road,,,Brookville,15825,Jefferson,814-503-4735,https://www.phhealthcare.org/about/covid-19-vaccines-at-penn-highlands,7814,-79.093801,41.155763,-8804681.65222451,5035343.889553032
Penn Highlands Clearfield,809 Turnpike Avenue,,,Clearfield,16830,Clearfield,814-503-4735,https://www.phhealthcare.org/about/covid-19-vaccines-at-penn-highlands,9053,-78.449877,41.032975,-8733000.360434944,5017206.686160433
Penn Highlands DuBois,100 Hospital Ave,,,Du Bois,15801,Clearfield,814-503-4735,https://www.phhealthcare.org/about/covid-19-vaccines-at-penn-highlands,7813,-78.774852,41.113923,-8769176.411955487,5029159.830130438
Penn Highlands Elk,763 Johnsonburg Rd,,,Saint Marys,15857,Elk,814-503-4735,https://www.phhealthcare.org/about/covid-19-vaccines-at-penn-highlands,9390,-78.576565,41.426259,-8747103.204084562,5075419.539958466
Penn Highlands Huntingdon,1225 Warm Springs Avenue,,,Huntingdon,16652,Huntingdon,814-503-4735,https://www.phhealthcare.org/about/covid-19-vaccines-at-penn-highlands,10035,-78.013806,40.493663,-8684457.15876523,4937941.515654543
Penn State Health St Joseph Medical Center,PHARMACY,,2500 BERNVILLE RD,READING,19605,Berks,,https://vaccine-scheduler.pennstatehealth.org/s/,17118,-75.977577,40.376615,-8457785.183346733,4920822.828282224
Petrolia Pharmacy,296 Church Street,,,Petrolia,16050,Butler,724-756-4050,https://walbergfamilypharmacies.com/petroliapharmacy,1410,-79.717689,41.021248,-8874132.546696546,5015476.24434775
PhysicianCare P.C. Towanda,71 Hospital Drive,,,Towanda,18848,Bradford,570-265-6300,https://www.physiciancarepc.com/,1223,-76.449029,41.78365,-8510266.979920203,5128626.155038071
Pittsburgh Mercy Family Health Center,249 South 9th Street,,Bldg 4 1st Floor,Pittsburgh,15203,Allegheny,412-697-3260,https://www.pittsburghmercy.org/,836,-79.989808,40.43065,-8904424.695211722,4928721.936914728
Price Chopper Pharmacy #185,16750 PA STATE RT 706,5,,Montrose,18801,Susquehanna,,https://www.pricechopper.com/covidvaccine,1861,-75.912335,41.834991,-8450522.477128398,5136293.85451935
Price Chopper Pharmacy-135,1228 O'Neill Highway,,,Dunmore,18512,Lackawanna,,https://pricechopper.com/covidvaccine,41988,-75.619641,41.435367,-8417939.930090154,5076771.845042622
Price Chopper Pharmacy-173,1026 Wyoming Avenue,,,Wyoming,18644,Luzerne,,https://pricechopper.com/covidvaccine,41985,-75.853017,41.301072,-8443919.227573523,5056851.654992764
Price Chopper Pharmacy-202,1025 Pennsylvania Avenue,,,Matamoras,18336,Pike,,https://pricechopper.com/covidvaccine,41991,-74.70887,41.360961,-8316553.366140872,5065730.006216401
Primemed-Dr. Patrick Connors,2232 Pittston Ave,,,Scranton,18505,Lackawanna,570-969-6327,https://www.primemed.net,10438,-75.680588,41.38544,-8424724.519095529,5069361.291023603
Punxsutawney Area Hospital,81 Hillcrest Drive,,,Punxsutawney,15767,Jefferson,814-938-1827,https://www.pah.org,13197,-79.000361,40.960222,-8794279.959004788,5006476.187211582
RITE AID STORE #00170,128 N COURTLAND STREET,,,EAST STROUDSBURG,18301,Monroe,,https://www.riteaid.com/pharmacy/covid-qualifier,11465,-75.183081,41.002621,-8369342.293189441,5012728.268436145
RITE AID STORE #00205,26 WEST INDEPENDENCE STREET,,,SHAMOKIN,17872,Northumberland,,https://www.riteaid.com/pharmacy/covid-qualifier,11503,-76.557699,40.790751,-8522364.06898471,4981526.3047149535
RITE AID STORE #00208,15 SOUTH MAIN STREET,,,SHENANDOAH,17976,Schuylkill,,https://www.riteaid.com/pharmacy/covid-qualifier,11498,-76.201108,40.820343,-8482668.540443245,4985878.303794111
RITE AID STORE #00213,2715 PARADE STREET,,,ERIE,16504,Erie,,https://www.riteaid.com/pharmacy/covid-qualifier,11083,-80.064198,42.114083,-8912705.752131833,5178083.872616081
RITE AID STORE #00218,5 EAST MAIN STREET,,,NANTICOKE,18634,Luzerne,,https://www.riteaid.com/pharmacy/covid-qualifier,11506,-76.004855,41.205157,-8460821.756416593,5042649.532345404
RITE AID STORE #00229,1184 TEXAS PALMYRA HIGHWAY,,,HONESDALE,18431,Wayne,,https://www.riteaid.com/pharmacy/covid-qualifier,11493,-75.225218,41.553763,-8374032.962572997,5094367.921999141
RITE AID STORE #00233,9635 WILLIAM PENN HIGHWAY,,,HUNTINGDON,16652,Huntingdon,,https://www.riteaid.com/pharmacy/covid-qualifier,11487,-77.9989547,40.490049,-8682803.919611612,4937412.509007652
RITE AID STORE #00264,375 PHILADELPHIA STREET,,,INDIANA,15701,Indiana,,https://www.riteaid.com/pharmacy/covid-qualifier,11501,-79.145158,40.622918,-8810398.687313182,4956880.253209002
RITE AID STORE #00272,209 ATWOOD STREET,,,Pittsburgh,15213,Allegheny,,https://www.riteaid.com/pharmacy/covid-qualifier,19634,-79.957221,40.440862,-8900797.12696524,4930215.491402211
RITE AID STORE #00274,1700 MURRAY AVENUE,,,PITTSBURGH,15217,Allegheny,,https://www.riteaid.com/pharmacy/covid-qualifier,11223,-79.923086,40.438043,-8896997.236147013,4929803.176323849
RITE AID STORE #00291,345 WEST BROAD STREET,,,QUAKERTOWN,18951,Bucks,,https://www.riteaid.com/pharmacy/covid-qualifier,11513,-75.33799,40.441571,-8386586.6841887375,4930319.194510151
RITE AID STORE #00415,33 PUBLIC SQUARE,,,WILKES-BARRE,18701,Luzerne,,https://www.riteaid.com/pharmacy/covid-qualifier,11422,-75.881226,41.246035,-8447059.439089311,5048699.783519788
RITE AID STORE #00501,201 NORTH WASHINGTON AVENUE,,,SCRANTON,18503,Lackawanna,,https://www.riteaid.com/pharmacy/covid-qualifier,11433,-75.66376,41.408006,-8422851.234704461,5072710.007122882
RITE AID STORE #00596,827 N. CENTER STREET,,,CORRY,16407,Erie,,https://www.riteaid.com/pharmacy/covid-qualifier,11082,-79.641479,41.930312,-8865648.88830319,5150546.228962168
RITE AID STORE #00696,15 WEST CENTRE STREET,,,MAHANOY CITY,17948,Schuylkill,,https://www.riteaid.com/pharmacy/covid-qualifier,11469,-76.141905,40.812759,-8476078.09262981,4984762.764649869
RITE AID STORE #00726,1080 S WASHINGTON AVENUE,,,SCRANTON,18505,Lackawanna,,https://www.riteaid.com/pharmacy/covid-qualifier,11445,-75.67452,41.398356,-8424049.032425396,5071277.838318703
RITE AID STORE #00740,8878 CLEARFIELD CURWENSVILLE,,,CLEARFIELD,16830,Clearfield,,https://www.riteaid.com/pharmacy/covid-qualifier,11439,-78.4368172,41.0244155,-8731546.550149081,5015943.611808646
RITE AID STORE #00756,4606 ADMIRAL PEARY HIGHWAY,,,EBENSBURG,15931,Cambria,,https://www.riteaid.com/pharmacy/covid-qualifier,11456,-78.748281,40.473093,-8766218.541765621,4934930.920093774
RITE AID STORE #00793,1927 Atherton Street,,,State College,16801,Centre,,https://www.riteaid.com/pharmacy/covid-qualifier,11443,-77.8494103,40.7890582,-8666156.713152627,4981277.408794409
RITE AID STORE #01314,501 MAIN STREET STE 2,,,WHITE HAVEN,18661,Luzerne,,https://www.riteaid.com/pharmacy/covid-qualifier,11494,-75.772759,41.059948,-8434984.947881438,5021188.005375588
RITE AID STORE #01355,504 MARION LANE,,,Brodheadsville,18322,Monroe,,https://www.riteaid.com/pharmacy/covid-qualifier,11475,-75.400125,40.928261,-8393503.520749176,5001765.929328746
RITE AID STORE #01398,1 EAST HIGH STREET,,,UNION CITY,16438,Erie,,https://www.riteaid.com/pharmacy/covid-qualifier,11081,-79.845045,41.899679,-8888309.751766013,5145963.670533072
RITE AID STORE #01406,521 NORTH FRALEY STREET,,,KANE,16735,Mc Kean,,https://www.riteaid.com/pharmacy/covid-qualifier,11228,-78.813312,41.669206,-8773457.759571398,5111556.183638323
RITE AID STORE #01448,412 BROADWAY STREET,,,CORAOPOLIS,15108,Allegheny,,https://www.riteaid.com/pharmacy/covid-qualifier,11227,-80.161095,40.516706,-8923492.276831228,4941315.15217464
RITE AID STORE #01450,601 DELAWARE AVENUE,,,PALMERTON,18071,Carbon,,https://www.riteaid.com/pharmacy/covid-qualifier,11507,-75.601623,40.805094,-8415934.17550504,4983635.440679865
RITE AID STORE #01494,1120 PHILADELPHIA AVENUE,,,NORTHERN CAMBRIA,15714,Cambria,,https://www.riteaid.com/pharmacy/covid-qualifier,11463,-78.781624,40.663304,-8769930.26754714,4962805.21262549
RITE AID STORE #01495,101 EAST SHIRLEY STREET,,,MT UNION,17066,Huntingdon,,https://www.riteaid.com/pharmacy/covid-qualifier,11461,-77.879575,40.38274,-8669514.632196559,4921717.893121937
RITE AID STORE #01496,508 EAST SECOND STREET,,,OIL CITY,16301,Venango,,https://www.riteaid.com/pharmacy/covid-qualifier,11225,-79.70548,41.427146,-8872773.44703345,5075551.228437317
RITE AID STORE #01548,610 BROAD STREET,,,NEW BETHLEHEM,16242,Clarion,,https://www.riteaid.com/pharmacy/covid-qualifier,11455,-79.3267,41.002191,-8830607.850310775,5012664.841218929
RITE AID STORE #01668,700 SHARON NEW CASTLE RD.,,,FARRELL,16121,Mercer,,https://www.riteaid.com/pharmacy/covid-qualifier,11205,-80.479401,41.212178,-8958925.93866767,5043688.42413944
RITE AID STORE #01699,9141 RIDGE ROAD,,,GIRARD,16417,Erie,,https://www.riteaid.com/pharmacy/covid-qualifier,11085,-80.302205,42.009745,-8939200.570177067,5162439.309582869
RITE AID STORE #01726,6531 ROUTE 22,,,DELMONT,15626,Westmoreland,,https://www.riteaid.com/pharmacy/covid-qualifier,11216,-79.585641,40.400443,-8859433.030576276,4924305.343890692
RITE AID STORE #01800,4551 MILFORD ROAD,,,EAST STROUDSBURG,18302,Monroe,,https://www.riteaid.com/pharmacy/covid-qualifier,11415,-75.111053,41.04933,-8361324.172906583,5019620.552697093
RITE AID STORE #01830,77 REUTERS BOULEVARD,,,TOWANDA,18848,Bradford,,https://www.riteaid.com/pharmacy/covid-qualifier,11419,-76.4484279,41.7683301,-8510200.065774288,5126339.341115758
RITE AID STORE #01854,1709 LIBERTY STREET,,,ERIE,16502,Erie,,https://www.riteaid.com/pharmacy/covid-qualifier,11084,-80.095364,42.112995,-8916175.135381896,5177920.603857145
RITE AID STORE #01955,"""674 ROUTE 196, STE 14""",,,TOBYHANNA,18466,Monroe,,https://www.riteaid.com/pharmacy/covid-qualifier,11418,-75.3730958,41.1758337,-8390494.643968627,5038311.791368604
RITE AID STORE #01976,207 ROUTE 6 WEST,,,COUDERSPORT,16915,Potter,,https://www.riteaid.com/pharmacy/covid-qualifier,11088,-78.029798,41.767113,-8686237.380061995,5126157.687028341
RITE AID STORE #02248,639 HAMLIN HIGHWAY,,,LAKE ARIEL,18436,Wayne,,https://www.riteaid.com/pharmacy/covid-qualifier,11272,-75.399052,41.403763,-8393384.074935555,5072080.271884317
RITE AID STORE #02277,1799 THIRD STREET,,,BEAVER,15009,Beaver,,https://www.riteaid.com/pharmacy/covid-qualifier,11087,-80.336257,40.69968,-8942991.221477559,4968144.943592569
RITE AID STORE #02380,975 MARKET STREET,,,MEADVILLE,16335,Crawford,,https://www.riteaid.com/pharmacy/covid-qualifier,11098,-80.154016,41.636934,-8922704.246155903,5106748.119696942
RITE AID STORE #02382,163 WEST 26TH STREET,,,ERIE,16508,Erie,,https://www.riteaid.com/pharmacy/covid-qualifier,11073,-80.076628,42.110727,-8914089.453402393,5177580.2695352845
RITE AID STORE #02426,39 WEST SIDE MALL,,,Wilkes Barre,18704,Luzerne,,https://www.riteaid.com/pharmacy/covid-qualifier,11260,-75.900934,41.259128,-8449253.323613865,5050638.446091735
RITE AID STORE #02433,813 THIRD AVENUE,,,NEW BRIGHTON,15066,Beaver,,https://www.riteaid.com/pharmacy/covid-qualifier,11086,-80.314114,40.735054,-8940526.273992924,4973340.385532345
RITE AID STORE #02474,59 NORTH MAIN STREET,,,PORT ALLEGANY,16743,Mc Kean,,https://www.riteaid.com/pharmacy/covid-qualifier,11089,-78.283881,41.815485,-8714521.770241223,5133379.939454354
RITE AID STORE #02476,101 MAIN STREET,,,RIDGWAY,15853,Elk,,https://www.riteaid.com/pharmacy/covid-qualifier,11092,-78.733289,41.420775,-8764549.639959648,5074605.397692274
RITE AID STORE #02478,129 EAST CENTRE STREET,,,ASHLAND,17921,Schuylkill,,https://www.riteaid.com/pharmacy/covid-qualifier,11261,-76.332059,40.78381,-8497245.939082114,4980505.79531072
RITE AID STORE #02480,847 MIDLAND AVENUE,,,MIDLAND,15059,Beaver,,https://www.riteaid.com/pharmacy/covid-qualifier,11093,-80.452088,40.636347,-8955885.469415637,4958850.000510953
RITE AID STORE #02568,2810 MEMORIAL HIGHWAY,,,SHAVERTOWN,18708,Luzerne,,https://www.riteaid.com/pharmacy/covid-qualifier,11230,-75.9472299,41.3008848,-8454406.95962768,5056823.91598543
RITE AID STORE #02693,44 KINGS VILLAGE,,,MINERSVILLE,17954,Schuylkill,,https://www.riteaid.com/pharmacy/covid-qualifier,11253,-76.254105,40.681573,-8488568.139496816,4965486.604069336
RITE AID STORE #02768,54 NORTH MAIN STREET,,,CARBONDALE,18407,Lackawanna,,https://www.riteaid.com/pharmacy/covid-qualifier,11254,-75.501419,41.573841,-8404779.51724959,5097355.119018689
RITE AID STORE #02769,100 FRANKLIN STREET,,,MERCER,16137,Mercer,,https://www.riteaid.com/pharmacy/covid-qualifier,11096,-80.239858,41.230068,-8932260.133884577,5046336.09734991
RITE AID STORE #03400,420 NORTH 3RD STREET,,,WOMELSDORF,19567,Berks,,https://www.riteaid.com/pharmacy/covid-qualifier,11265,-76.18883,40.371532,-8481301.759735284,4920080.095843385
RITE AID STORE #03425,807 SOUTH 4TH STREET,,,HAMBURG,19526,Berks,,https://www.riteaid.com/pharmacy/covid-qualifier,11235,-75.977855,40.542423,-8457816.130165175,4945081.648124815
RITE AID STORE #03447,126 W MAIN STREET,,,Grove City,16127,Mercer,,https://www.riteaid.com/pharmacy/covid-qualifier,11099,-80.087881,41.157301,-8915342.131632289,5035571.285089348
RITE AID STORE #03449,335 MAIN STREET,,,GREENVILLE,16125,Mercer,,https://www.riteaid.com/pharmacy/covid-qualifier,11106,-80.379288,41.408146,-8947781.410485886,5072730.786266663
RITE AID STORE #03527,155 CHARTIERS AVENUE,,,MCKEES ROCKS,15136,Allegheny,,https://www.riteaid.com/pharmacy/covid-qualifier,11100,-80.058165,40.464546,-8912034.161643876,4933680.264715936
RITE AID STORE #03804,10 NEWPORT PLAZA,,,NEWPORT,17074,Perry,,https://www.riteaid.com/pharmacy/covid-qualifier,11234,-77.113873,40.49327,-8584277.075457167,4937883.988094514
RITE AID STORE #03972,811 EAST STATE STREET,,,SHARON,16146,Mercer,,https://www.riteaid.com/pharmacy/covid-qualifier,11112,-80.494172,41.233092,-8960570.238866178,5046783.7130147545
RITE AID STORE #04004,2108 MACARTHUR ROAD,,,WHITEHALL,18052,Lehigh,,https://www.riteaid.com/pharmacy/covid-qualifier,11279,-75.487448,40.635086,-8403224.272643717,4958665.021907475
RITE AID STORE #04288,3773 PETERS MOUNTAIN RD.,,,HALIFAX,17032,Dauphin,,https://www.riteaid.com/pharmacy/covid-qualifier,11283,-76.926297,40.454864,-8563396.21065213,4932263.720619734
RITE AID STORE #04293,5 FRIENDLY DRIVE,,PO BOX 157,DUNCANNON,17020,Perry,,https://www.riteaid.com/pharmacy/covid-qualifier,11276,-77.0346783,40.3971746,-8575461.16177964,4923827.586983783
RITE AID STORE #04415,14 FIFTH STREET,,,WILLIAMSPORT,17701,Lycoming,,https://www.riteaid.com/pharmacy/covid-qualifier,11286,-77.00414,41.243712,-8572061.653773949,5048355.860670717
RITE AID STORE #04616,208 EAST CENTRAL AVENUE,,,TITUSVILLE,16354,Crawford,,https://www.riteaid.com/pharmacy/covid-qualifier,11108,-79.671219,41.627186,-8868959.52995938,5105296.281368339
RITE AID STORE #04682,100 WILLIAM MARKS DRIVE,,,MUNHALL,15120,Allegheny,,https://www.riteaid.com/pharmacy/covid-qualifier,11110,-79.903445,40.409943,-8894810.81002834,4925694.133844019
RITE AID STORE #04840,1000 NORTH CHURCH STREET,,,HAZLETON,18201,Luzerne,,https://www.riteaid.com/pharmacy/covid-qualifier,11285,-75.978136,40.973192,-8457847.410942087,5008388.293743261
RITE AID STORE #06712,100 Forbes Avenue,Ste. 100,,Pittsburgh,15222,Allegheny,,https://www.riteaid.com/pharmacy/covid-qualifier,19618,-80.003547,40.440941,-8905954.11369573,4930227.046419333
RITE AID STORE #06738,1201 Blair Street,,,Hollidaysburg,16648,Blair,,https://www.riteaid.com/pharmacy/covid-qualifier,19619,-78.383039,40.430351,-8725559.988309303,4928678.210133567
RITE AID STORE #06739,1365 Logan Avenue,,,Tyrone,16686,Blair,,https://www.riteaid.com/pharmacy/covid-qualifier,19620,-78.237942,40.675326,-8709407.864153672,4964569.6320126485
RITE AID STORE #06740,3106 E PLEASANT VALLEY BLVD,,,Altoona,16601,Blair,,https://www.riteaid.com/pharmacy/covid-qualifier,19636,-78.321569,40.596627,-8718717.17921024,4953025.071634415
RITE AID STORE #06741,1600 9TH AVE,STE 35,,Altoona,16602,Blair,,https://www.riteaid.com/pharmacy/covid-qualifier,19637,-78.402375,40.510296,-8727712.461983282,4940376.572490189
RITE AID STORE #06778,27 N 7th Street,Ste. 100,,Allentown,18101,Lehigh,,https://www.riteaid.com/pharmacy/covid-qualifier,19621,-75.471914,40.602971,-8401495.035673734,4953955.1854425175
RITE AID STORE #07781,20480 ROUTE 19,,,CRANBERRY TWP,16066,Butler,,https://www.riteaid.com/pharmacy/covid-qualifier,11115,-80.104354,40.698759,-8917175.897604128,4968009.711556689
RITE AID STORE #07850,620 E ALLEGHENY AVENUE,,,EMPORIUM,15834,Cameron,,https://www.riteaid.com/pharmacy/covid-qualifier,11118,-78.223636,41.509001,-8707815.327518383,5087711.587367459
RITE AID STORE #07853,901 S SAINT MARYS STREET,,,SAINT MARYS,15857,Elk,,https://www.riteaid.com/pharmacy/covid-qualifier,11116,-78.56053,41.408409,-8745318.196049692,5072769.821493546
RITE AID STORE #10888,2302 SHEFFIELD ROAD,,,ALIQUIPPA,15001,Beaver,,https://www.riteaid.com/pharmacy/covid-qualifier,11168,-80.281188,40.606584,-8936860.968439065,4954484.938199129
RITE AID STORE #10890,1505 7TH AVENUE,,,BEAVER FALLS,15010,Beaver,,https://www.riteaid.com/pharmacy/covid-qualifier,11162,-80.319517,40.756037,-8941127.73320168,4976423.501168782
RITE AID STORE #10894,1021 FIRST AVENUE,,,CONWAY,15027,Beaver,,https://www.riteaid.com/pharmacy/covid-qualifier,11165,-80.23872,40.660066,-8932133.452304056,4962330.039078729
RITE AID STORE #10899,3200 OREGON DRIVE,,,LOWER BURRELL,15068,Westmoreland,,https://www.riteaid.com/pharmacy/covid-qualifier,11175,-79.701497,40.584561,-8872330.061501622,4951256.280928397
RITE AID STORE #10900,700 STEVENSON BLVD.,,,NEW KENSINGTON,15068,Westmoreland,,https://www.riteaid.com/pharmacy/covid-qualifier,11196,-79.754864,40.564172,-8878270.848766785,4948268.121976017
RITE AID STORE #10901,351 BRIGHTON AVENUE,,,ROCHESTER,15074,Beaver,,https://www.riteaid.com/pharmacy/covid-qualifier,11195,-80.287067,40.702593,-8937515.415725438,4968572.676771235
RITE AID STORE #10904,4960 WILLIAM FLYNN HWY STE 10,,,ALLISON PARK,15101,Allegheny,,https://www.riteaid.com/pharmacy/covid-qualifier,11181,-79.947083,40.602254,-8899668.56996758,4953850.059391216
RITE AID STORE #10907,2100 WASHINGTON PIKE,,,CARNEGIE,15106,Allegheny,,https://www.riteaid.com/pharmacy/covid-qualifier,11174,-80.091038,40.387663,-8915693.567264723,4922437.365049006
RITE AID STORE #10908,5990 UNIVERSITY BLVD STE30,,,MOON TOWNSHIP,15108,Allegheny,,https://www.riteaid.com/pharmacy/covid-qualifier,11176,-80.217714,40.520301,-8929795.075080452,4941841.586765523
RITE AID STORE #10909,1710 MOUNT ROYAL BLVD.,,,GLENSHAW,15116,Allegheny,,https://www.riteaid.com/pharmacy/covid-qualifier,11179,-79.962791,40.525812,-8901417.176528959,4942648.646038025
RITE AID STORE #10914,1700 PINE HOLLOW ROAD,,,Mc Kees Rocks,15136,Allegheny,,https://www.riteaid.com/pharmacy/covid-qualifier,11173,-80.097396,40.475512,-8916401.336587187,4935284.913586507
RITE AID STORE #10917,4111 WILLIAM PENN HWY.,,,MONROEVILLE,15146,Allegheny,,https://www.riteaid.com/pharmacy/covid-qualifier,11180,-79.768465,40.438863,-8879784.905161066,4929923.110108072
RITE AID STORE #10919,4534 BROADWAY BLVD.,,,MONROEVILLE,15146,Allegheny,,https://www.riteaid.com/pharmacy/covid-qualifier,11182,-79.76606,40.390261,-8879517.181785706,4922817.071006781
RITE AID STORE #10934,2336 ARDMORE BOULEVARD,,,PITTSBURGH,15221,Allegheny,1-412-273-3487,https://www.riteaid.com/pharmacy/covid-qualifier,11131,-79.848272,40.416559,-8888668.979762804,4926661.432213339
RITE AID STORE #10935,331 PENN AVENUE,,,WILKINSBURG,15221,Allegheny,,https://www.riteaid.com/pharmacy/covid-qualifier,11155,-79.890772,40.445762,-8893400.05812152,4930932.220696846
RITE AID STORE #10939,4411 HOWLEY STREET,,,PITTSBURGH,15224,Allegheny,,https://www.riteaid.com/pharmacy/covid-qualifier,11124,-79.952217,40.464581,-8900240.08423331,4933685.385830297
RITE AID STORE #10941,PITTSBURGH INTL AIRPORT,,PO BOX 12298,Pittsburgh,15231,Allegheny,,https://www.riteaid.com/pharmacy/covid-qualifier,19640,-80.2324813,40.4925467,-8931438.963396844,4937778.111916247
RITE AID STORE #10954,1125 FREEPORT ROAD,,,PITTSBURGH,15238,Allegheny,,https://www.riteaid.com/pharmacy/covid-qualifier,11202,-79.882172,40.487714,-8892442.710500695,4937070.733752917
RITE AID STORE #10975,201 WEST MAHONING STREET,,,PUNXSUTAWNEY,15767,Jefferson,,https://www.riteaid.com/pharmacy/covid-qualifier,11339,-78.972331,40.943148,-8791159.673677854,5003959.6199131375
RITE AID STORE #10976,431 COMMONS DRIVE,,,DUBOIS,15801,Clearfield,,https://www.riteaid.com/pharmacy/covid-qualifier,11340,-78.735112,41.127876,-8764752.575391363,5031221.681051158
RITE AID STORE #10983,200 GREATER BUTLER MART,,,BUTLER,16001,Butler,,https://www.riteaid.com/pharmacy/covid-qualifier,11151,-79.91772,40.843362,-8896399.895759417,4989264.975886708
RITE AID STORE #10984,178 POINT PLAZA,,,BUTLER,16001,Butler,,https://www.riteaid.com/pharmacy/covid-qualifier,11145,-79.930091,40.868939,-8897777.02918002,4993029.3738039145
RITE AID STORE #10987,100 SEVEN FIELDS BLVD,,,SEVEN FIELDS,16046,Butler,,https://www.riteaid.com/pharmacy/covid-qualifier,11159,-80.056697,40.688209,-8911870.744631391,4966460.770012278
RITE AID STORE #10988,129 GRAND AVE,,,MARS,16046,Butler,,https://www.riteaid.com/pharmacy/covid-qualifier,11149,-80.010307,40.696684,-8906706.633453492,4967705.042539811
RITE AID STORE #10990,31 NORTH JEFFERSON STREET,,,NEW CASTLE,16101,Lawrence,,https://www.riteaid.com/pharmacy/covid-qualifier,11187,-80.347295,41.000448,-8944219.966016935,5012407.743969819
RITE AID STORE #10991,1730 WILMINGTON ROAD,,,NEW CASTLE,16105,Lawrence,,https://www.riteaid.com/pharmacy/covid-qualifier,11186,-80.35425,41.018617,-8944994.193075404,5015088.055030832
RITE AID STORE #10994,135 SOUTH MARKET STREET,,,NEW WILMINGTON,16142,Lawrence,,https://www.riteaid.com/pharmacy/covid-qualifier,11184,-80.333017,41.121823,-8942630.54632739,5030327.168418329
RITE AID STORE #10995,1851 EAST STATE STREET,,,HERMITAGE,16148,Mercer,,https://www.riteaid.com/pharmacy/covid-qualifier,11183,-80.475948,41.233359,-8958541.552465962,5046823.2356307395
RITE AID STORE #10998,165 BUTLER ROAD,,,KITTANNING,16201,Armstrong,,https://www.riteaid.com/pharmacy/covid-qualifier,11332,-79.526502,40.805653,-8852849.707210252,4983717.650772387
RITE AID STORE #10999,100 SOUTH THIRD STREET,,P.O. BOX 276,CONNEAUT LAKE,16316,Crawford,,https://www.riteaid.com/pharmacy/covid-qualifier,11127,-80.304286,41.602848,-8939432.226037407,5101672.409435743
RITE AID STORE #11002,1020 LIBERTY STREET,,,FRANKLIN,16323,Venango,,https://www.riteaid.com/pharmacy/covid-qualifier,11128,-79.825612,41.393742,-8886146.480101429,5070593.143839496
RITE AID STORE #11011,600 CHESTNUT AVENUE,,,ALTOONA,16601,Blair,,https://www.riteaid.com/pharmacy/covid-qualifier,11333,-78.396767,40.520011,-8727088.182278913,4941799.119506958
RITE AID STORE #11015,821 EAST BISHOP STREET,,,BELLEFONTE,16823,Centre,,https://www.riteaid.com/pharmacy/covid-qualifier,11358,-77.763356,40.913776,-8656577.192296054,4999631.950241446
RITE AID STORE #11016,24 EAST AVENUE,,,WELLSBORO,16901,Tioga,,https://www.riteaid.com/pharmacy/covid-qualifier,11359,-77.296265,41.74844,-8604580.860021934,5123371.144325527
RITE AID STORE #11036,1913 EAST 3RD STREET,,,WILLIAMSPORT,17701,Lycoming,,https://www.riteaid.com/pharmacy/covid-qualifier,11308,-76.963071,41.248665,-8567489.87360656,5049089.1728333235
RITE AID STORE #11038,2411 COLUMBIA BLVD,,,BLOOMSBURG,17815,Columbia,,https://www.riteaid.com/pharmacy/covid-qualifier,11306,-76.413434,41.011354,-8506304.562645417,5014016.520527686
RITE AID STORE #11040,2269 SCHOENERSVILLE ROAD,,,BETHLEHEM,18017,Northampton,,https://www.riteaid.com/pharmacy/covid-qualifier,11320,-75.401141,40.641092,-8393616.621351821,4959546.085329793
RITE AID STORE #11045,601 SOUTH 25TH STREET,,,EASTON,18045,Northampton,,https://www.riteaid.com/pharmacy/covid-qualifier,11326,-75.247798,40.681156,-8376546.55667511,4965425.391636374
RITE AID STORE #11058,241 NORTH FIRST STREET,,,LEHIGHTON,18235,Carbon,,https://www.riteaid.com/pharmacy/covid-qualifier,11363,-75.708902,40.836197,-8427876.41915785,4988210.698687006
RITE AID STORE #11059,1241 BLAKESLEE BLVD. DR. S#2,,,LEHIGHTON,18235,Carbon,,https://www.riteaid.com/pharmacy/covid-qualifier,11364,-75.6981333,40.8327944,-8426677.652957346,4987710.070958111
RITE AID STORE #11060,205 CENTER STREET,,,TAMAQUA,18252,Schuylkill,,https://www.riteaid.com/pharmacy/covid-qualifier,11365,-75.968182,40.794977,-8456739.33673073,4982147.690018996
RITE AID STORE #11062,3382 ROUTE 940,,,MOUNT POCONO,18344,Monroe,,https://www.riteaid.com/pharmacy/covid-qualifier,11366,-75.361602,41.12596,-8389215.160005348,5030938.525553098
RITE AID STORE #11073,400 WEST SECOND STREET,,,BERWICK,18603,Columbia,,https://www.riteaid.com/pharmacy/covid-qualifier,11407,-76.239317,41.05271,-8486921.946866965,5020119.4883351065
RITE AID STORE #11076,420 TIOGA WEST PLZ STE 110,,,TUNKHANNOCK,18657,Wyoming,,https://www.riteaid.com/pharmacy/covid-qualifier,11399,-75.961376,41.54249,-8455981.696276393,5092691.136181957
RITE AID STORE #11082,801 GROW AVENUE,,,MONTROSE,18801,Susquehanna,,https://www.riteaid.com/pharmacy/covid-qualifier,11406,-75.86338,41.837666,-8445072.831456615,5136693.5301727
RITE AID STORE #11084,148 ENNIS LANE,,,TOWANDA,18848,Bradford,,https://www.riteaid.com/pharmacy/covid-qualifier,11404,-76.422551,41.767241,-8507319.46244298,5126176.79106731
RITE AID STORE #11169,23 NORTH ELM STREET,,,KUTZTOWN,19530,Berks,,https://www.riteaid.com/pharmacy/covid-qualifier,11385,-75.768194,40.527534,-8434476.774405964,4942900.838209119
Redners Pharmacy 21,191 Manheim Road,,,Schuylkill Haven,17972,Schuylkill,484-248-5873,,45294,-76.161689,40.644358,-8478280.437435664,4960025.231681572
Redners Pharmacy 46,22 Forest Drive,,,Hegins,17938,Schuylkill,484-248-5873,,45295,-76.516331,40.64987,-8517759.004289573,4960833.936021898
Roadway Pharmacy,6858 Route 711,3,,Seward,15954,Westmoreland,814-446-5536,https://www.roadwaypharmacy.com,1054,-79.022936,40.405864,-8796792.996509446,4925097.807281848
Robert Packer Hospital,Guthrie Square,,,Sayre,18840,Bradford,570-887-7150,https://www.guthrie.org/safety-hospitals-and-clinics/scheduling-covid-19-vaccine-appointment,7415,-76.5369197,41.982191,-8520050.92788967,5158312.115409451
RxXpress Pharmacy,111 Mill Street,,Grove City,Grove City,16127,Mercer,724-458-8420,https://www.rxxpress.com/,37492,-80.089173,41.16148,-8915485.956414394,5036189.183262648
SLUHHN-Allentown,1736 HAMILTON BLVD,,Inpatient Pharmacy - 2nd Floor,Allentown,18104,Lehigh,1-866-785-8537,https://www.slhn.org/covid-19/protect-yourself/covid-19-vaccine,13353,-75.5371705,40.6050762,-8408759.356024686,4954263.854948088
SLUHHN-Bethlehem,801 OSTRUM STREET,,Attn: Inpatient Pharmacy,Bethlehem (Part-Northampton),18015,Northampton,1-866-785-8537,https://www.slhn.org/covid-19/protect-yourself/covid-19-vaccine,13354,-75.392627,40.608689,-8392668.84720721,4954793.595064991
SLUHHN-Miners,360 W. Ruddle St,,,Coaldale,18218,Schuylkill,1-866-785-8537,https://www.slhn.org/covid-19/protect-yourself/covid-19-vaccine,13355,-75.914299,40.821487,-8450741.108608317,4986046.58711941
SLUHHN-Sacred Heart Campus,421 Chew St,,,Allentown,18102,Lehigh,1-866-785-8537,https://www.slhn.org/covid-19/protect-yourself/covid-19-vaccine,13009,-75.468091,40.608047,-8401069.461260432,4954699.457356266
SLUHN-Anderson Campus Hospital,1872 St Luke Blvd,,Lower Level Pharmacy West Wing,Easton,18045,Northampton,1-866-785-8537,https://www.slhn.org/covid-19/protect-yourself/covid-19-vaccine,18905,-75.267688,40.687393,-8378760.701346988,4966340.975841269
SLUHN-Monroe,100 St. Lukes Lane,,,Stroudsburg,18360,Monroe,1-866-785-8537,https://www.slhn.org/covid-19/protect-yourself/covid-19-vaccine,16098,-75.261735,40.998044,-8378098.016418296,5012053.158574847
SLUHN-Upper Bucks Campus,3000 St. Luke,,,Quakertown,18951,Bucks,866-785-8537,https://www.slhn.org/covid-19/protect-yourself/covid-19-vaccine,1104,-75.3428951,40.4540889,-8387132.717423026,4932150.326911399
STATE COLLEGE DIALYSIS,500 SCIENCE PARK RD,2,,State College,16803,Centre,866-544-6741,https://www.davita.com/locations/pa/state-college/500-science-park-rd--5110,1774,-77.89755,40.779846,-8671515.600043567,4979923.030986533
Saltsburg Pharmacy,237 WASHINGTON ST,,,Saltsburg,15681,Indiana,724-639-9022,,1164,-79.451406,40.486443,-8844490.058729641,4936884.701770563
Saxonburg Drug,115 Pittsburgh Street,,,Saxonburg,16056,Butler,724-352-3600,https://www.saxonburgdrugrx.com/,1126,-79.814071,40.750074,-8884861.741858182,4975547.23491779
Scranton Primary Health Care Center Inc,959 Wyoming Avenue,,,Scranton,18509,Lackawanna,570-344-9684,https://scrantonprimary.org/,133,-75.655167,41.417856,-8421894.666320076,5074172.077574636
Sharon Pharmacy,63 Pitt Street,102,,Sharon,16146,Mercer,724-347-7000,https://walbergfamilypharmacies.com/sharonpharmacy,1412,-80.507928,41.233798,-8962101.549781531,5046888.218859615
Sharon Regional Medical Center,PHARMACY DEPARTMENT,,740  E STATE STREET,Sharon,16146,Mercer,724-983-7252,https://www.sharonregionalmedical.org/,13351,-80.498898,41.232902,-8961096.334779669,5046755.588405055
Sharon Regional Medical Center,PHARMACY DEPARTMENT,,740  E STATE STREET,Sharon,16146,Mercer,724-983-7252,Social media/home page. Please contact Mktg Director rochelle.penman@steward.org,13351,-80.498898,41.232902,-8961096.334779669,5046755.588405055
Shickshinny Health Center,26 North Main Street,,,Shickshinny,18655,Luzerne,570-704-4230,,21016,-76.149654,41.153996,-8476940.707363969,5035082.642619727
ShopRite 414,921 Drinker Turnpike,24,,Covington Twp,18444,Lackawanna,,https://vaccines.shoprite.com/,16858,-75.514343,41.310335,-8406218.210348602,5058224.331511882
ShopRite 416,3430 Route 940,Suite 102,,Mount Pocono,18344,Monroe,,https://vaccines.shoprite.com/,16859,-75.35358,41.122478,-8388322.155050202,5030423.960369001
ShopRite 422,107 Kinsley Drive,,,Brodheadsville,18322,Monroe,,https://vaccines.shoprite.com/,16852,-75.422151,40.920224,-8395955.44385339,5000581.833609119
ShopRite 449,4701 Freemansburg Ave,,,Easton,18045,Northampton,,https://vaccines.shoprite.com/,16173,-75.292329,40.650855,-8381503.724919624,4960978.459344066
Spartan Pharmacy,3526 BROWNSVILLE ROAD,,,Pittsburgh,15227,Allegheny,412-884-4400,https://spartanpharmacy.com/immunization/,1001,-79.975657,40.374133,-8902849.413097505,4920460.149255723
Spartan Pharmacy Clairton Blvd,3520 Clairton Blvd,,,Pittsburgh,15227,Allegheny,1-412-440-5888,http://www.spartanpharmacy.com/,1343,-79.982148,40.372921,-8903571.987912243,4920283.052184201
Squirrel Hill Health Center,4516 Browns Hill Road,,,Pittsburgh,15217,Allegheny,412-697-7933,https://squirrelhillhealthcenter.org/covid-19-vaccines/,290,-79.925759,40.41681,-8897294.793145902,4926698.13177196
St Clair Hospital,St. Clair Hospital,Pharmacy,1000 Bower Hill Rd,Pittsburgh,15243,Allegheny,412-942-4000,https://forms.stclair.org/vacreq/,13008,-80.067034,40.376822,-8913021.454207722,4920853.076491947
St Marys Pharmacy,4 Railroad Street,,,Saint Marys,15857,Elk,814-971-1070,https://WWW.SMPRX.COM/VACCINES,18263,-78.560794,41.427735,-8745347.584395261,5075638.675332115
St. Lukes University Health Network-Lehigh,GNADEN HUETTEN HOSPITAL PHARMACY DEP,,211 North 12th Street,Lehighton,18235,Carbon,1-866-785-8537,https://www.slhn.org/covid-19/protect-yourself/covid-19-vaccine,17754,-75.726712,40.832541,-8429859.01928888,4987672.789006443
State College Family Medicine,2188 Sandy Dr,A,,State College,16803,Centre,814-278-1977,http://statecollegefamilymedicine.com/index.html,41895,-77.901511,40.782158,-8671956.5365466,4980262.923610613
Superior Care Pharmacy Incorporated,518 Burke Bypass,,,Olyphant,18447,Lackawanna,570-383-6700,,1118,-75.596149,41.470887,-8415324.812612437,5082047.470648013
Susquehanna Community Health and Dental Cente,471 Hepburn Street,,,Williamsport,17701,Lycoming,570-567-5400,https://www.rivervalleyhealthanddental.org,21363,-77.007053,41.24184,-8572385.927450629,5048078.7177914465
Susquehanna Valley Med Specialties P.C.,6850 Lows Road,,,Bloomsburg,17815,Columbia,570-784-7300,http://www.svmedspec.com/,9015,-76.351007,41.031886,-8499355.220793664,5017045.979810496
Synergy Grandview Pharmacy Inc.,173 Point Township Drive,,,Northumberland,17857,Northumberland,570-473-7506,,1640,-76.781622,40.89982,-8547291.06332161,4997576.347424837
THMG Vaccine Clinic - Muhlenberg,1000 Tuckerton Court,,,Reading,19605,Berks,484-628-4001,https://towerhealth.org/covid-19-information-center/covid-19-vaccine,17818,-75.948258,40.401299,-8454521.407196166,4924430.473140313
The Hometown Pharmacy-Beaver,4969 Tuscarawas Road,,,Beaver,15009,Beaver,330-318-3926,https://www.thehometownpharmacies.com,962,-80.405892,40.705987,-8950742.954218948,4969071.061646924
The Hometown Pharmacy-Center,3589 Broadhead Road,,,Monaca,15061,Beaver,330-318-3926,https://www.thehometownpharmacies.com,961,-80.316444,40.658902,-8940785.648406472,4962159.228776543
The Hometown Pharmacy-Grove City,49 Pine Grove Sq,,,Grove City,16127,Mercer,330-318-3926,https://www.thehometownpharmacies.com,945,-80.111402,41.167202,-8917960.477375237,5037035.290090411
The Hometown Pharmacy-Harmony,3 Northgate Pl,2,Route 19 N,Harmony,16037,Butler,330-318-3926,https://www.thehometownpharmacies.com,946,-80.1238345,40.8549101,-8919344.456944525,4990964.434021901
The Hometown Pharmacy-New Castle,20 E Lawrence St,,,New Castle,16101,Lawrence,330-318-3926,https://www.thehometownpharmacies.com,944,-80.346445,40.997909,-8944125.344449762,5012033.246716954
The Hometown Pharmacy-New Castle 2,2016 W. State Street,,,New Castle,16101,Lawrence,330-318-3926,https://www.thehometownpharmacies.com,963,-80.379149,41.007067,-8947765.937076664,5013384.100622859
The Medicine Shoppe 0838,20 Bailey Avenue,100,,Pittsburgh,15211,Allegheny,412-481-2400,https://mtwashington.medicineshoppe.com/,1319,-80.00449,40.426915,-8906059.087975549,4928175.731711937
The Medicine Shoppe-Dallas,26 Dallas Shopping Center,,,Dallas,18612,Luzerne,570-674-5577,,657,-75.9527036,41.3320985,-8455016.289124437,5061450.21471192
The Wright Center for Community Health,103 Spruce Street,,,Hawley (Part-Wayne),18428,Pike,570-230-0019,,19259,-75.182106,41.482243,-8369233.756685917,5083734.735896029
The Wright Center-Childrens Service Center,335 South Franklin Street,,,Wilkes Barre,18702,Luzerne,570-230-0019,,15760,-75.892954,41.241497,-8448364.994077334,5048027.938733421
The Wright Center-Clarks Summit,1145 Northern Boulevard,,,Clarks Summit,18411,Lackawanna,570-230-0019,https://thewrightcenter.org/covid-19/,9179,-75.696292,41.488351,-8426472.68037895,5084642.379858769
The Wright Center-Kingston Clinic,2 Sharpe St,,,Kingston,18704,Luzerne,570-230-0019,,18681,-75.888534,41.269736,-8447872.961928029,5052209.443130477
The Wright Center-Mid Valley,5 South Washington Avenue,,,Jermyn,18433,Lackawanna,570-230-0019,https://thewrightcenter.org/covid-19/,9180,-75.547617,41.516305,-8409922.255085258,5088797.414538909
The Wright Ctr for Com Hlth Scranton Practice,501 S Washington Avenue,1000,,Scranton,18505,Lackawanna,570-230-0019,,18806,-75.670596,41.401561,-8423612.214743525,5071753.472867676
Tops Pharmacy 601,1702 E. 38th Street,,,Erie,16510,Erie,,https://www.topsmarkets.com/Covid19vaccinations,17304,-80.030027,42.115846,-8908901.853811935,5178348.439983896
Tops Pharmacy 602,1520 W 26th Street,,,Erie,16508,Erie,,https://www.topsmarkets.com/Covid19vaccinations,17305,-80.104509,42.100594,-8917193.1521252,5176059.868128507
Towne Drugs,227 Commercial Ave,,,ASPINWALL,15215,Allegheny,412-782-2244,https://www.townedrugsrx.com/,1402,-79.904291,40.490298,-8894904.986317553,4937448.955978456
Tyrone Hospital,187 Hospital Drive,,,Tyrone,16686,Blair,814-503-4735,,14768,-78.251829,40.674907,-8710953.757922318,4964508.131759205
UPMC Jameson,1211 Wilmington Avenue,,Pharmacy Dept,New Castle,16105,Lawrence,1-844-876-2822,https://vaccine.upmc.com/,11707,-80.35119,41.013408,-8944653.555433575,5014319.541986508
UPMC Susquehanna-Williamsport,700 High Street,,,Williamsport,17701,Lycoming,1-844-876-2822,https://vaccine.upmc.com/,1087,-77.014411,41.24554,-8573205.016263885,5048626.497169579
UPMC Wellsboro,32-36 Central Ave,,UMC Wellsboro Pharmacy,Wellsboro,16901,Tioga,1-844-876-2822,https://vaccine.upmc.com/,1093,-77.299405,41.74539,-8604930.403223023,5122916.07459082
UPMC-Altoona,620 HOWARD AVENUE,,,ALTOONA,16601,Blair,1-844-876-2822,https://vaccine.upmc.com/,10821,-78.398234,40.521206,-8727251.487971907,4941974.11508124
UPMC-East,2775 Mosside Blvd.,,,Monroeville,15146,Allegheny,1-844-876-2822,https://vaccine.upmc.com/,7995,-79.758506,40.436955,-8878676.274352254,4929644.046926692
UPMC-Hamot,201 State St,,,Erie,16507,Erie,1-844-876-2822,https://vaccine.upmc.com/,7994,-80.087751,42.133373,-8915327.660098486,5180979.057207028
UPMC-MAGEE WOMENS HOSPITAL,300 Halket Street,,,Pittsburgh,15213,Allegheny,1-844-876-2822,https://vaccine.upmc.com/,7629,-79.95927,40.436751,-8901025.220601875,4929614.210451404
UPMC-Mercy Hospital of Pittsburgh,1400 Locust Street,2030,,Pittsburgh,15219,Allegheny,1-844-876-2822,https://vaccine.upmc.com/,7618,-79.986291,40.436802,-8904033.1845626,4929621.669561738
UPMC-Northwest,100 Fairfield Drive,,,Seneca,16346,Venango,1-844-876-2822,https://vaccine.upmc.com/,7620,-79.70786,41.36008,-8873038.387421539,5065599.341628145
UPMC-Presbyterian,G119 Presbyterian,,200 Lothrop Street,Pittsburgh,15213,Allegheny,1-844-876-2822,https://vaccine.upmc.com/,7623,-79.960728,40.441886,-8901187.524419453,4930365.268879403
UPMC-Shadyside,5230 Centre Avenue,,,Pittsburgh,15232,Allegheny,1-844-876-2822,https://vaccine.upmc.com/,7624,-79.940481,40.455272,-8898933.638689362,4932323.409744117
UPMC-St Margaret Hospital,815 Freeport   Road,,,Pittsburgh,15215,Allegheny,1-844-876-2822,https://vaccine.upmc.com/,7625,-79.896,40.487535,-8893982.036419386,4937044.533913621
UPMC-Western Psych Institute and Clinic,3811 O'Hara Street,E922,,Pittsburgh,15213,Allegheny,1-844-876-2822,https://vaccine.upmc.com/,7626,-79.959923,40.443272,-8901097.912229363,4930567.998669074
VDI - Professional Pharmacy of Pennsburg Inc,931 Main St,,,Pennsburg,18073,Montgomery,215-679-9700,https://www.professionalrx.net/covid-19.php,786,-75.490221,40.387991,-8403532.961591687,4922485.302483686
VDI-Blairsville Pharmacy,135 E Market St.,100,,Blairsville,15717,Indiana,724-459-7400,https://mainlinepharmacy.com/covid-vaccine-scheduling/,975,-79.262009,40.431024,-8823406.481131868,4928776.632225716
VDI-Blandon Pharmacy,104 Anna Ave,6,,Blandon,19510,Berks,610-944-8899,,1110,-75.868337,40.443175,-8445624.642172476,4930553.810373157
VDI-Boalsburg Apothecary,3901 S Atherton St,1,,State College,16801,Centre,814-466-7936,,18177,-77.802183,40.781378,-8660899.394165086,4980148.252631289
VDI-Crestwood Pharmacy,10 S Mountain Blvd,,,Mountain Top,18707,Luzerne,,https://www.crestwoodpharmacypa.com,18185,-75.886098,41.161736,-8447601.787648456,5036227.036166306
VDI-DePietros Pharmacy,617 3rd Street,,,Dunmore,18512,Lackawanna,,,18186,-75.634014,41.415651,-8419539.925131325,5073844.762340076
VDI-Dubois Drug and Wellness,700 S Brady Street,,,Du Bois,15801,Clearfield,814-371-5827,https://www.duboisdrug.com,18709,-78.771154,41.109506,-8768764.752478534,5028507.216268331
VDI-Duncansville Pharmacy Inc,1328 Third Ave,,PO Box 126,Duncansville,16635,Blair,814-695-8065,http://duncansvillepharmacy.com/,18295,-78.435533,40.422866,-8731403.593659006,4927583.641512826
VDI-Gaughns Drug Store,348 Pennsylvania Ave W,,,Warren,16365,Warren,814-723-2840,,18192,-79.149414,41.845058,-8810872.463065999,5137798.066554959
VDI-Mainline Pharmacy Ebensburg,3720 New Germany Road,,,Ebensburg,15931,Cambria,814-472-9390,https://mainlinepharmacy.com/covid-vaccine-scheduling/,978,-78.735645,40.480893,-8764811.908679957,4936072.408268071
VDI-Mainline Pharmacy Nanty Glo,1049 Shoemaker St,,,Nanty Glo,15943,Cambria,814-419-6717,https://mainlinepharmacy.com/covid-vaccine-scheduling-instructions/,976,-78.834503,40.471478,-8775816.730900798,4934694.590073845
VDI-Mainline Pharmacy Portage,619 Main St.,,,Portage,15946,Cambria,814-736-4530,https://mainlinepharmacy.com/covid-vaccine-scheduling-instructions/,979,-78.672725,40.387321,-8757807.686319243,4922387.381752919
VDI-Mainline Pharmacy-Cresson,1207 Second St,,,Cresson,16630,Cambria,724-459-7400,https://mainlinepharmacy.com/covid-vaccine-scheduling/,977,-78.591422,40.460085,-8748757.077759277,4933027.563955055
VDI-Moshannon Valley Pharmacy Phillipsburg,208 Medical Center Drive,,,Philipsburg,16866,Centre,814-342-3750,,18224,-78.206711,40.907036,-8705931.245136708,4998639.150090089
VDI-Pine Grove Pharmacy,10 East Pottsville Str,,,Pine Grove,17963,Schuylkill,570-915-0981,,18233,-76.384937,40.552524,-8503132.291116282,4946561.429854731
VDI-Port Allegany Phamacy,54-56 North Main street,,,Port Allegany,16743,Mc Kean,,http://portpharmacy.com/covid-19/,18234,-78.283704,41.815527,-8714502.066691354,5133386.212695048
VDI-Primary Care Pharmacy Services Inc,27 Heckel Road,110,,Mc Kees Rocks,15136,Allegheny,412-720-1041,https://www.primarycarepharmacysvcs.com,18235,-80.091426,40.471602,-8915736.759227151,4934712.73533523
VDI-Redners Pharmacy Store 22,1 Goldstar Plaza,,,Shenandoah,17976,Schuylkill,570-462-0300,https://www.rednerspharmacy.com/coronavirus,795,-76.2029343,40.8215664,-8482871.84322928,4986058.2670313455
VDI-Thompson Pharmacy-Altoona,602 E CHESTNUT AVE,,,ALTOONA,16601,Blair,814-944-6139,https://www.Thompsonpharmacy.com,18278,-78.387537,40.531279,-8726060.70337889,4943449.327293837
VDI-Townville Pharmacy,2195 State Rt 442 Hwy,,,Muncy,17756,Lycoming,570-546-8272,https://www.shopbenfranklin.com/,18288,-76.765997,41.212223,-8545551.696277965,5043695.083113275
VDI-Village Pharmacy Bessemer,1624 E Poland Road,,,Bessemer,16112,Lawrence,724-667-7124,,18251,-80.4917553,40.9751314,-8960301.213052778,5008674.242732914
VDI-Vine Pharmacy,4375 Red Rock Road,,,Benton,17814,Columbia,570-925-2500,https://docs.google.com/forms/d/e/1FAIpQLSc5EYFz2jfducq8e19RGxjnTe-a6X6laY2IjS2OOX2SHwjv6w/viewform,18280,-76.379807,41.20319,-8502561.222128512,5042358.496907065
VDI-Williams Valley Pharmacy,226 East Grand Avenue,,,Tower City,17980,Schuylkill,717-647-9523,,18294,-76.556757,40.588506,-8522259.206024382,4951834.555057304
Valley Pediatrics-Wilkes Barre,75 South Wyoming Avenue,2,,Edwardsville,18704,Luzerne,570-704-4233,,21634,-75.902046,41.257639,-8449377.110887626,5050417.952318828
Value Specialty Pharmacy,1333 Plank Road,200,,Duncansville,16635,Blair,855-265-8008,https://vsprx.com/,1002,-78.451515,40.408899,-8733182.701760864,4925541.503550274
WAYNE MEMORIAL HOSPITAL,601 Park Street,,,Honesdale,18431,Wayne,570-253-8197,https://www.wmh.org/covid-19-novel-coronavirus/,9247,-75.259883,41.576319,-8377891.852721347,5097723.859255378
WILKINSBURG FAMILY HEALTH CENTER,807 WALLACE AVE,SUITE 203,,Pittsburgh,15221,Allegheny,412-247-5216,http://pchspitt.org/healthcare-services/wilkinsburg/,21083,-79.881338,40.443551,-8892349.870045375,4930608.80841786
WILSONS PHARMACY,4101 Penn ave.,,,Pittsburgh,15224,Allegheny,412-621-6471,https://www.wilsonspharmacy.org/,1134,-79.955183,40.465747,-8900570.257843005,4933855.993622524
WMCHC-Highland Physician Family Health Center,1839 Fair Avenue,,,Honesdale,18431,Wayne,570-253-8197,wmh.org,10245,-75.262343,41.589239,-8378165.698668698,5099646.656618105
Walmart Store #2230,373 BENNER PIKE,,,STATE COLLEGE,16801,Centre,,https://www.walmart.com/cp/1228302,13479,-77.804218,40.831638,-8661125.92932885,4987539.934591401
Walmart Store #2535,500 TERRY RICH BLVD,,,SAINT CLAIR,17970,Schuylkill,,https://www.walmart.com/cp/1228302,13470,-76.192164,40.728989,-8481672.89891759,4972449.412130134
Warren General Hospital,2 Crescent Park West,,,Warren,16365,Warren,814-723-3300,,13568,-79.1630555,41.8595125,-8812391.027899655,5139958.273180833
Wegmans Pharmacy #069,5028 West Ridge Rd.,,,Erie,16506,Erie,,https://www.wegmans.com/pharmacy/,17637,-80.188738,42.068343,-8926569.481515227,5171222.3979423735
Wegmans Pharmacy #075,6143 Peach Street,,,Erie,16509,Erie,,https://www.wegmans.com/pharmacy/,17638,-80.093591,42.061088,-8915977.76592472,5170134.5270614745
Wegmans Pharmacy #076,1315 Cold Spring Road,,,Scranton,18508,Lackawanna,,https://www.wegmans.com/pharmacy/,17645,-75.659866,41.439243,-8422417.75660731,5077347.38948082
Wegmans Pharmacy #077,220 Highland Park Blvd.,,,Wilkes-Barre,18702,Luzerne,,https://www.wegmans.com/pharmacy/,17648,-75.861379,41.23466,-8444850.081155537,5047015.818177843
Wegmans Pharmacy #078,201 William Street,,,Williamsport,17701,Lycoming,,https://www.wegmans.com/pharmacy/,17649,-77.003451,41.237852,-8571984.954644792,5047488.335178013
Wegmans Pharmacy #079,3900 Tilghman Street,,,Allentown,18104,Lehigh,,https://www.wegmans.com/pharmacy/,17632,-75.540388,40.594111,-8409117.526486313,4952656.217398104
Wegmans Pharmacy #094,3791 Easton-Nazareth Highway,,,Easton,18045,Northampton,,https://www.wegmans.com/pharmacy/,17636,-75.287031,40.7159,-8380913.954257402,4970526.860974493
Wegmans Pharmacy #097,5000 Wegmans Drive,,,Bethlehem (Part-Lehigh),18017,Northampton,,https://www.wegmans.com/pharmacy/,17633,-75.387114,40.665191,-8392055.142854463,4963082.138793263
Wegmans Pharmacy #098,345 Colannade Blvd.,,,State College,16803,Centre,,https://www.wegmans.com/pharmacy/,17646,-77.906416,40.810933,-8672502.55864894,4984494.195290484
Weis Markets # 227,431 Dublin Pike,,,Perkasie,18944,Bucks,215-249-1440,https://www.weismarkets.com/pharmacy-services,1396,-75.252019,40.402505,-8377016.436245749,4924606.767750371
Weis Pharmacy #135,112 Atlantic Avenue,,,Dingmans Ferry,18328,Pike,570-832-0399,https://www.weismarkets.com/,1453,-74.942561,41.245434,-8342567.729263842,5048610.80359908
Weis Pharmacy-10,140 Continental Blvd,,,Danville,17821,Montour,,https://c.ateb.com/3f647956b456425d9c12360db8e4fdb4,17414,-76.616059,40.9659113,-8528860.674467405,5007314.887872298
Weis Pharmacy-106,589 PA SR 590,,,Hamlin,18427,Wayne,,https://c.ateb.com/3f647956b456425d9c12360db8e4fdb4,17428,-75.357952,41.37054,-8388808.843863951,5067150.819716075
Weis Pharmacy-118,501 N. Centre Street,,,Philipsburg,16866,Centre,,https://c.ateb.com/3f647956b456425d9c12360db8e4fdb4,17466,-78.22405,40.900592,-8707861.413787572,4997690.045275082
Weis Pharmacy-132,3369 Route 100,,,Macungie,18062,Lehigh,,https://c.ateb.com/3f647956b456425d9c12360db8e4fdb4,17449,-75.563153,40.518704,-8411651.714694222,4941607.726245496
Weis Pharmacy-137,110 Rolling Ridge Drive,,,State College,16801,Centre,,https://c.ateb.com/3f647956b456425d9c12360db8e4fdb4,17476,-77.829191,40.785488,-8663905.91097243,4980752.495631332
Weis Pharmacy-14,1440 Allegheny Street,,,Jersey Shore,17740,Lycoming,,https://c.ateb.com/3f647956b456425d9c12360db8e4fdb4,17438,-77.276318,41.20127,-8602360.370139081,5042074.423980428
Weis Pharmacy-142,1500 Cedar Crest Blvd,,,Allentown,18104,Lehigh,,https://c.ateb.com/3f647956b456425d9c12360db8e4fdb4,17399,-75.5371705,40.6050762,-8408759.356024686,4954263.854948088
Weis Pharmacy-144,5580 Crawford Drive,,,Bethlehem (Part-Northampton),18017,Northampton,,https://c.ateb.com/3f647956b456425d9c12360db8e4fdb4,17385,-75.38905,40.67354,-8392270.65738864,4964307.488035032
Weis Pharmacy-151,Rte 209 & E. Weir Lake Road,,,Brodheadsville,18322,Monroe,,https://c.ateb.com/3f647956b456425d9c12360db8e4fdb4,17405,-75.398492,40.921612,-8393321.736020712,5000786.318141384
Weis Pharmacy-152,1 Weis Plaza,,,Nanticoke,18634,Luzerne,,https://c.ateb.com/3f647956b456425d9c12360db8e4fdb4,17461,-76.004063,41.207225,-8460733.591379885,5042955.521081049
Weis Pharmacy-154,600 Hunter Hwy,,,Tunkhannock,18657,Wyoming,,https://c.ateb.com/3f647956b456425d9c12360db8e4fdb4,18394,-75.948447,41.528968,-8454542.446579926,5090680.211726477
Weis Pharmacy-155,3236 Route 940,Suite 116,,Mount Pocono,18344,Monroe,,https://c.ateb.com/3f647956b456425d9c12360db8e4fdb4,17459,-75.374604,41.121871,-8390662.536024641,5030334.261536111
Weis Pharmacy-156,70 Phoenix Street,,,Duryea,18642,Luzerne,,https://c.ateb.com/3f647956b456425d9c12360db8e4fdb4,17417,-75.773309,41.34754,-8435046.173601374,5063739.67645107
Weis Pharmacy-158,695 North Courtland Street,,,East Stroudsburg,18301,Monroe,,https://c.ateb.com/3f647956b456425d9c12360db8e4fdb4,17421,-75.182608,41.01792,-8369289.639070296,5014985.219181896
Weis Pharmacy-159,1070 N. Ninth Street,,,Stroudsburg,18360,Monroe,,https://c.ateb.com/3f647956b456425d9c12360db8e4fdb4,17477,-75.220059,40.988692,-8373458.665319995,5010673.879479955
Weis Pharmacy-164,1321 Blue Valley Drive,,,Pen Argyl,18072,Northampton,,https://c.ateb.com/3f647956b456425d9c12360db8e4fdb4,17386,-75.236372,40.872981,-8375274.620173306,4993624.404450076
Weis Pharmacy-166,Route 611 Tannersville Plaza RR1 400,,,Tannersville,18372,Monroe,,https://c.ateb.com/3f647956b456425d9c12360db8e4fdb4,17478,-75.322872,41.0514121,-8384903.756126924,5019927.896970839
Weis Pharmacy-168,3825 Sullivan Trail,,,Easton,18040,Northampton,,https://c.ateb.com/3f647956b456425d9c12360db8e4fdb4,17419,-75.240936,40.743502,-8375782.682329286,4974581.566792477
Weis Pharmacy-169,3011 William Penn Hwy,,,Easton,18045,Northampton,,https://c.ateb.com/3f647956b456425d9c12360db8e4fdb4,17420,-75.261307,40.67685,-8378050.371676236,4964793.3259315565
Weis Pharmacy-170,1199 Texas Palmyra Hwy Ste N,,,Honesdale,18431,Wayne,,https://c.ateb.com/3f647956b456425d9c12360db8e4fdb4,17434,-75.225892,41.553404,-8374107.991909793,5094314.518564154
Weis Pharmacy-176,4521 William Penn Hwy,,,Mifflintown,17059,Juniata,,https://c.ateb.com/3f647956b456425d9c12360db8e4fdb4,17453,-77.385032,40.55805,-8614462.357261179,4947371.075239535
Weis Pharmacy-177,1272 East Penn Street,,,Muncy,17756,Lycoming,,https://c.ateb.com/3f647956b456425d9c12360db8e4fdb4,17460,-76.761027,41.210791,-8544998.438408723,5043483.1820144085
Weis Pharmacy-181,552 State Street,,,Hamburg,19526,Berks,,https://c.ateb.com/3f647956b456425d9c12360db8e4fdb4,17427,-75.980221,40.556078,-8458079.512080392,4947082.138743915
Weis Pharmacy-182,5020 Route 873,,,Schnecksville,18078,Lehigh,,https://c.ateb.com/3f647956b456425d9c12360db8e4fdb4,17470,-75.613901,40.676068,-8417300.956213,4964678.542717624
Weis Pharmacy-184,61 King's Plaza,,,Oley,19547,Berks,,https://c.ateb.com/3f647956b456425d9c12360db8e4fdb4,17464,-75.793824,40.38766,-8437329.892954998,4922436.926597935
Weis Pharmacy-187,170 Buckaroo Lane,,,Bellefonte,16823,Centre,,https://c.ateb.com/3f647956b456425d9c12360db8e4fdb4,17402,-77.737684,40.913172,-8653719.39832841,4999542.9770787
Weis Pharmacy-188,7801 Glenlivet West Drive,,,Fogelsville,18051,Lehigh,,https://c.ateb.com/3f647956b456425d9c12360db8e4fdb4,17426,-75.6546546,40.5972965,-8421837.626212992,4953123.224970789
Weis Pharmacy-19,1571 Route 209,,,Millersburg,17061,Dauphin,,https://c.ateb.com/3f647956b456425d9c12360db8e4fdb4,17380,-76.922857,40.539761,-8563013.271603798,4944691.706171918
Weis Pharmacy-190,1020 Northern Blvd,,,Clarks Summit,18411,Lackawanna,,https://c.ateb.com/3f647956b456425d9c12360db8e4fdb4,17410,-75.691742,41.483928,-8425966.176695839,5083985.117015751
Weis Pharmacy-192,725 Columbia Blvd.,,,Bloomsburg,17815,Columbia,,https://c.ateb.com/3f647956b456425d9c12360db8e4fdb4,17404,-76.444359,41.002524,-8509747.117898202,5012713.960399835
Weis Pharmacy-195,365 S. Cedar Crest Blvd,,,Allentown,18103,Lehigh,,https://c.ateb.com/3f647956b456425d9c12360db8e4fdb4,17400,-75.522227,40.582474,-8407095.853214016,4950950.373783507
Weis Pharmacy-197,65 Meadow Green Drive,,,Mifflinburg,17844,Union,,https://c.ateb.com/3f647956b456425d9c12360db8e4fdb4,17452,-77.03143,40.924573,-8575099.562677696,5001222.5563410865
Weis Pharmacy-198,11798 Route 6,,,Wellsboro,16901,Tioga,,https://c.ateb.com/3f647956b456425d9c12360db8e4fdb4,17479,-77.2678,41.743836,-8601412.150716502,5122684.221144082
Weis Pharmacy-20,316 Walnut Street,,,Newport,17074,Perry,,https://c.ateb.com/3f647956b456425d9c12360db8e4fdb4,17462,-77.13331,40.478211,-8586440.792399716,4935679.896989464
Weis Pharmacy-203,6 Millbrook Plaza,,,Mill Hall,17751,Clinton,,https://c.ateb.com/3f647956b456425d9c12360db8e4fdb4,17454,-77.476949,41.116333,-8624694.510896428,5029515.9272981
Weis Pharmacy-205,2 Anthra Plaza,,,Coal Township,17866,Northumberland,,https://c.ateb.com/3f647956b456425d9c12360db8e4fdb4,17411,-76.564681,40.786651,-8523141.301669426,4980923.484075755
Weis Pharmacy-22,313-337 W. Bald Eagle Street,,,Lock Haven,17745,Clinton,,https://c.ateb.com/3f647956b456425d9c12360db8e4fdb4,17448,-77.4329508,41.1602593,-8619796.653676605,5036008.6890480835
Weis Pharmacy-226,719 Route 522,,,Selinsgrove,17870,Snyder,,https://c.ateb.com/3f647956b456425d9c12360db8e4fdb4,17472,-76.864674,40.810261,-8556536.369670974,4984395.358920167
Weis Pharmacy-30,611-619 Fifteenth Street,,,Huntingdon,16652,Huntingdon,,https://c.ateb.com/3f647956b456425d9c12360db8e4fdb4,17436,-78.014162,40.496637,-8684496.788503952,4938376.862362462
Weis Pharmacy-31,6901 Westbranch Highway,,,Lewisburg,17837,Union,,https://c.ateb.com/3f647956b456425d9c12360db8e4fdb4,17446,-76.889704,40.974249,-8559322.69652553,5008544.138881294
Weis Pharmacy-35,224 N. Logan Blvd,,,Burnham,17009,Mifflin,,https://c.ateb.com/3f647956b456425d9c12360db8e4fdb4,17406,-77.569616,40.631424,-8635010.154149765,4958127.855632178
Weis Pharmacy-36,1100 North 4th Street,,,Sunbury,17801,Northumberland,,https://c.ateb.com/3f647956b456425d9c12360db8e4fdb4,17381,-76.784683,40.873055,-8547631.81228293,4993635.298471968
Weis Pharmacy-37,801 Loyalsock Ave.,,,Montoursville,17754,Lycoming,,https://c.ateb.com/3f647956b456425d9c12360db8e4fdb4,17456,-76.918045,41.258692,-8562477.602214102,5050573.881914474
Weis Pharmacy-39,3644 MacArthur Road,,,Whitehall,18052,Lehigh,,https://c.ateb.com/3f647956b456425d9c12360db8e4fdb4,17481,-75.511315,40.664025,-8405881.13493048,4962911.021857972
Weis Pharmacy-4,339 W. Walnut Street,,,Shamokin,17872,Northumberland,,https://c.ateb.com/3f647956b456425d9c12360db8e4fdb4,17473,-76.561126,40.789922,-8522745.560879659,4981404.414320216
Weis Pharmacy-51,1471 Martin Street,,,State College,16803,Centre,,https://c.ateb.com/3f647956b456425d9c12360db8e4fdb4,17475,-77.890684,40.804239,-8670751.28041978,4983509.700285749
Weis Pharmacy-52,1916 Lycoming Creek Road,,,Williamsport,17701,Lycoming,,https://c.ateb.com/3f647956b456425d9c12360db8e4fdb4,17483,-77.043482,41.255265,-8576441.185180737,5050066.416564698
Weis Pharmacy-64,601 Pleasant Valley Blvd,,,Altoona,16602,Blair,,https://c.ateb.com/3f647956b456425d9c12360db8e4fdb4,17401,-78.380468,40.511638,-8725273.785898473,4940573.066458563
Weis Pharmacy-68,100 Weis Lane,,,Hazleton,18201,Luzerne,,https://c.ateb.com/3f647956b456425d9c12360db8e4fdb4,17433,-76.003758,40.965946,-8460699.638935193,5007320.003470886
Weis Pharmacy-7,553-555 Mahoning Street,,,Milton,17847,Northumberland,,https://c.ateb.com/3f647956b456425d9c12360db8e4fdb4,17455,-76.844837,41.011585,-8554328.124932108,5014050.598905758
Weis Pharmacy-72,500 Pottsville Park Plaza,,,Pottsville,17901,Schuylkill,,https://c.ateb.com/3f647956b456425d9c12360db8e4fdb4,17467,-76.18442,40.698517,-8480810.840780888,4967974.178584907
Weis Pharmacy-74,2525 Memorial Hwy,,,Dallas,18612,Luzerne,,https://c.ateb.com/3f647956b456425d9c12360db8e4fdb4,17413,-75.959317,41.334355,-8455752.489444848,5061784.744875182
Weis Pharmacy-76,1220 Chestnut Street,,,Emmaus,18049,Lehigh,,https://c.ateb.com/3f647956b456425d9c12360db8e4fdb4,17423,-75.507897,40.528012,-8405500.644910948,4942970.843921276
Weis Pharmacy-78,15260-2 Kutztown Road,,,Kutztown,19530,Berks,,https://c.ateb.com/3f647956b456425d9c12360db8e4fdb4,17439,-75.765671,40.528419,-8434195.915330695,4943030.451689005
Weis Pharmacy-8,1105 Chestnut Street,,,Berwick,18603,Columbia,,https://c.ateb.com/3f647956b456425d9c12360db8e4fdb4,17403,-76.236194,41.063424,-8486574.296097219,5021701.195171252
Weis Pharmacy-9,305 River Avenue,,,Williamsport,17701,Lycoming,,https://c.ateb.com/3f647956b456425d9c12360db8e4fdb4,17482,-76.981242,41.249751,-8569512.660073765,5049249.967061448
Weis Pharmacy-91,237 S. Mountain Blvd,,,Mountain Top,18707,Luzerne,,https://c.ateb.com/3f647956b456425d9c12360db8e4fdb4,17457,-75.899452,41.144911,-8449088.348128509,5033739.557183682
Wellsboro Laurel Health Center,7 Water St,,,Wellsboro,16901,Tioga,1-833-528-7354,https://laurelhc.org/index.php/coronavirus-covid19,1157,-77.301368,41.749396,-8605148.923383452,5123513.787027109
Wilkes Barre Municipal Health Department,Kirby Health Center,,71 North Franklin Street,Wilkes Barre,18701,Luzerne,570-208-4268,https://www.wilkes-barre.city/health,78,-75.880582,41.248233,-8446987.749337241,5049025.211231477
Wilkes-Barre General Hospital,575 North River Street,,Pharmacy Department,Wilkes Barre,18764,Luzerne,570-552-1795,https://primary-health.net/covid-vaccine-clinic.aspx,11044,-75.868071,41.258461,-8445595.031187925,5050539.67492183
Wind Gap Community Pharmacy Inc,31 West 1st Street,,,Wind Gap,18091,Northampton,610-881-4260,https://www.windgaprx.com/,1135,-75.296334,40.839971,-8381949.559480253,4988766.000902824
